{
"type": "FeatureCollection",
"name": "aerodromos_obras",
"crs": { "type": "name", "properties": { "name": "urn:ogc:def:crs:EPSG::4674" } },
"features": [
{ "type": "Feature", "properties": { "COD": "SDXF", "TIPO": "Aeródromo", "NOME": "Alto Paraíso de Goiás", "MUNICIPIO": "Alto Paraíso de Goiás", "ALT_M": 1345, "COMP_M": 1200, "LARG_M": 30, "REVESTIMENTO": "Asfalto", "LINK_DMA": "DMA_AERO_0001", "LINK_DPJ": null, "LINK_DOR": null }, "geometry": { "type": "Point", "coordinates": [ -47.530270377164648, -14.118950271083619 ] } },
{ "type": "Feature", "properties": { "COD": "SWNS", "TIPO": "Aeródromo", "NOME": "Anápolis", "MUNICIPIO": "Anápolis", "ALT_M": 1112, "COMP_M": 1842, "LARG_M": 45, "REVESTIMENTO": "Asfalto", "LINK_DMA": "DMA_AERO_0003", "LINK_DPJ": "DPJ_AERO_0001", "LINK_DOR": null }, "geometry": { "type": "Point", "coordinates": [ -48.928284565300494, -16.367486526941569 ] } },
{ "type": "Feature", "properties": { "COD": "SJVO", "TIPO": "Aeródromo", "NOME": "Aragarças", "MUNICIPIO": "Aragarças", "ALT_M": 323, "COMP_M": 1010, "LARG_M": 30, "REVESTIMENTO": "Asfalto", "LINK_DMA": "DMA_AERO_0004", "LINK_DPJ": null, "LINK_DOR": null }, "geometry": { "type": "Point", "coordinates": [ -52.240453196368527, -15.899350181619914 ] } },
{ "type": "Feature", "properties": { "COD": "SWNH", "TIPO": "Aeródromo", "NOME": "Aruanã", "MUNICIPIO": "Aruanã", "ALT_M": 250, "COMP_M": 1300, "LARG_M": 23, "REVESTIMENTO": "Asfalto", "LINK_DMA": "DMA_AERO_0005", "LINK_DPJ": null, "LINK_DOR": null }, "geometry": { "type": "Point", "coordinates": [ -51.049046976055145, -14.933523356571449 ] } },
{ "type": "Feature", "properties": { "COD": "SWBA", "TIPO": "Aeródromo", "NOME": "Buriti Alegre", "MUNICIPIO": "Buriti Alegre", "ALT_M": 868, "COMP_M": 1200, "LARG_M": 30, "REVESTIMENTO": "Terra", "LINK_DMA": null, "LINK_DPJ": null, "LINK_DOR": null }, "geometry": { "type": "Point", "coordinates": [ -49.047086265651728, -18.119403779247651 ] } },
{ "type": "Feature", "properties": { "COD": "SBCN", "TIPO": "Aeroporto", "NOME": "Nelson Rodrigues Guimarães", "MUNICIPIO": "Caldas Novas", "ALT_M": 685, "COMP_M": 2100, "LARG_M": 30, "REVESTIMENTO": "Asfalto", "LINK_DMA": null, "LINK_DPJ": null, "LINK_DOR": null }, "geometry": { "type": "Point", "coordinates": [ -48.605927759134985, -17.724932666031059 ] } },
{ "type": "Feature", "properties": { "COD": "SWCB", "TIPO": "Aeródromo", "NOME": "Campos Belos", "MUNICIPIO": "Campos Belos", "ALT_M": 670, "COMP_M": 1200, "LARG_M": 20, "REVESTIMENTO": "Terra", "LINK_DMA": "DMA_AERO_0007", "LINK_DPJ": null, "LINK_DOR": null }, "geometry": { "type": "Point", "coordinates": [ -46.710714147459782, -13.007855068921002 ] } },
{ "type": "Feature", "properties": { "COD": "SWKT", "TIPO": "Aeródromo", "NOME": "Catalão", "MUNICIPIO": "Catalão", "ALT_M": 796, "COMP_M": 1400, "LARG_M": 30, "REVESTIMENTO": "Asfalto", "LINK_DMA": "DMA_AERO_0008", "LINK_DPJ": null, "LINK_DOR": null }, "geometry": { "type": "Point", "coordinates": [ -47.899167179397281, -18.217573517190019 ] } },
{ "type": "Feature", "properties": { "COD": "SWCW", "TIPO": "Aeródromo", "NOME": "Cavalcante", "MUNICIPIO": "Cavalcante", "ALT_M": 800, "COMP_M": 1000, "LARG_M": 99, "REVESTIMENTO": "Terra", "LINK_DMA": null, "LINK_DPJ": null, "LINK_DOR": null }, "geometry": { "type": "Point", "coordinates": [ -47.412868090114102, -13.778438242567503 ] } },
{ "type": "Feature", "properties": { "COD": "SWCZ", "TIPO": "Aeródromo", "NOME": "Ceres", "MUNICIPIO": "Ceres", "ALT_M": 598, "COMP_M": 1200, "LARG_M": 23, "REVESTIMENTO": "Asfalto", "LINK_DMA": "DMA_AERO_0009", "LINK_DPJ": null, "LINK_DOR": null }, "geometry": { "type": "Point", "coordinates": [ -49.604047078842072, -15.344351999686992 ] } },
{ "type": "Feature", "properties": { "COD": "SDXB", "TIPO": "Aeródromo", "NOME": "Cristalina", "MUNICIPIO": "Cristalina", "ALT_M": 1200, "COMP_M": 1100, "LARG_M": 23, "REVESTIMENTO": "Asfalto", "LINK_DMA": "DMA_AERO_0010", "LINK_DPJ": null, "LINK_DOR": null }, "geometry": { "type": "Point", "coordinates": [ -47.644516907272909, -16.790648773633826 ] } },
{ "type": "Feature", "properties": { "COD": "SWFR", "TIPO": "Aeródromo", "NOME": "Formosa", "MUNICIPIO": "Formosa", "ALT_M": 965, "COMP_M": 1400, "LARG_M": 30, "REVESTIMENTO": "Asfalto", "LINK_DMA": null, "LINK_DPJ": null, "LINK_DOR": null }, "geometry": { "type": "Point", "coordinates": [ -47.344286549923154, -15.555503308080416 ] } },
{ "type": "Feature", "properties": { "COD": "SWNV", "TIPO": "Aeródromo", "NOME": "Aeródromo Nacional de Aviação", "MUNICIPIO": "Goiânia", "ALT_M": 825, "COMP_M": 1100, "LARG_M": 20, "REVESTIMENTO": "Asfalto", "LINK_DMA": null, "LINK_DPJ": null, "LINK_DOR": null }, "geometry": { "type": "Point", "coordinates": [ -49.347989837181025, -16.626160484117982 ] } },
{ "type": "Feature", "properties": { "COD": "SBGO", "TIPO": "Aeroporto", "NOME": "Santa Genoveva", "MUNICIPIO": "Goiânia", "ALT_M": 747, "COMP_M": 2500, "LARG_M": 45, "REVESTIMENTO": "Asfalto", "LINK_DMA": null, "LINK_DPJ": null, "LINK_DOR": null }, "geometry": { "type": "Point", "coordinates": [ -49.220218070070317, -16.632640902188829 ] } },
{ "type": "Feature", "properties": { "COD": "SWIA", "TIPO": "Aeródromo", "NOME": "Iaciara", "MUNICIPIO": "Iaciara", "ALT_M": 565, "COMP_M": 1500, "LARG_M": 25, "REVESTIMENTO": "Terra", "LINK_DMA": null, "LINK_DPJ": null, "LINK_DOR": null }, "geometry": { "type": "Point", "coordinates": [ -46.667442747069174, -14.106644619321305 ] } },
{ "type": "Feature", "properties": { "COD": "SWIP", "TIPO": "Aeródromo", "NOME": "Ipameri", "MUNICIPIO": "Ipameri", "ALT_M": 832, "COMP_M": 1105, "LARG_M": 30, "REVESTIMENTO": "Terra", "LINK_DMA": "DMA_AERO_0014", "LINK_DPJ": null, "LINK_DOR": null }, "geometry": { "type": "Point", "coordinates": [ -48.162312451657058, -17.68800749222914 ] } },
{ "type": "Feature", "properties": { "COD": "SWJW", "TIPO": "Aeródromo", "NOME": "Jataí", "MUNICIPIO": "Jataí", "ALT_M": 771, "COMP_M": 1500, "LARG_M": 23, "REVESTIMENTO": "Asfalto", "LINK_DMA": null, "LINK_DPJ": null, "LINK_DOR": null }, "geometry": { "type": "Point", "coordinates": [ -51.77402760281354, -17.829990903207424 ] } },
{ "type": "Feature", "properties": { "COD": "SWUZ", "TIPO": "Aeródromo", "NOME": "Brigadeiro Araripe Macedo", "MUNICIPIO": "Luziânia", "ALT_M": 996, "COMP_M": 1200, "LARG_M": 20, "REVESTIMENTO": "Asfalto", "LINK_DMA": null, "LINK_DPJ": null, "LINK_DOR": null }, "geometry": { "type": "Point", "coordinates": [ -47.968717156389154, -16.261665192502704 ] } },
{ "type": "Feature", "properties": { "COD": "SWIQ", "TIPO": "Aeródromo", "NOME": "Minaçu", "MUNICIPIO": "Minaçu", "ALT_M": 427, "COMP_M": 1275, "LARG_M": 30, "REVESTIMENTO": "Asfalto", "LINK_DMA": null, "LINK_DPJ": null, "LINK_DOR": null }, "geometry": { "type": "Point", "coordinates": [ -48.194892205163825, -13.548420333118715 ] } },
{ "type": "Feature", "properties": { "COD": "SWME", "TIPO": "Aeródromo", "NOME": "Mineiros", "MUNICIPIO": "Mineiros", "ALT_M": 825, "COMP_M": 1000, "LARG_M": 18, "REVESTIMENTO": "Asfalto", "LINK_DMA": "DMA_AERO_0016", "LINK_DPJ": null, "LINK_DOR": null }, "geometry": { "type": "Point", "coordinates": [ -52.556793816484706, -17.551103604593308 ] } },
{ "type": "Feature", "properties": { "COD": "SWML", "TIPO": "Aeródromo", "NOME": "Monte Alegre de Goiás", "MUNICIPIO": "Monte Alegre de Goiás", "ALT_M": 555, "COMP_M": 900, "LARG_M": 45, "REVESTIMENTO": "Asfalto", "LINK_DMA": null, "LINK_DPJ": null, "LINK_DOR": null }, "geometry": { "type": "Point", "coordinates": [ -46.870823333696777, -13.249445938695615 ] } },
{ "type": "Feature", "properties": { "COD": "SWMX", "TIPO": "Aeródromo", "NOME": "Morrinhos", "MUNICIPIO": "Morrinhos", "ALT_M": 850, "COMP_M": 1085, "LARG_M": 20, "REVESTIMENTO": "Terra", "LINK_DMA": "DMA_AERO_0017", "LINK_DPJ": null, "LINK_DOR": null }, "geometry": { "type": "Point", "coordinates": [ -49.121901913345098, -17.762187369963282 ] } },
{ "type": "Feature", "properties": { "COD": "SDOV", "TIPO": "Aeródromo", "NOME": "Mozarlândia", "MUNICIPIO": "Mozarlândia", "ALT_M": 328, "COMP_M": 1500, "LARG_M": 30, "REVESTIMENTO": "Asfalto", "LINK_DMA": "DMA_AERO_0018", "LINK_DPJ": null, "LINK_DOR": null }, "geometry": { "type": "Point", "coordinates": [ -50.564315121461142, -14.770485357791967 ] } },
{ "type": "Feature", "properties": { "COD": "SWNQ", "TIPO": "Aeródromo", "NOME": "Niquelândia", "MUNICIPIO": "Niquelândia", "ALT_M": 840, "COMP_M": 1400, "LARG_M": 50, "REVESTIMENTO": "Terra", "LINK_DMA": "DMA_AERO_0019", "LINK_DPJ": null, "LINK_DOR": null }, "geometry": { "type": "Point", "coordinates": [ -48.491500636400517, -14.435949705586227 ] } },
{ "type": "Feature", "properties": { "COD": "SNMH", "TIPO": "Aeródromo", "NOME": "Pirenópolis", "MUNICIPIO": "Pirenópolis", "ALT_M": 785, "COMP_M": 1295, "LARG_M": 30, "REVESTIMENTO": "Asfalto", "LINK_DMA": "DMA_AERO_0021", "LINK_DPJ": null, "LINK_DOR": null }, "geometry": { "type": "Point", "coordinates": [ -48.982621383460987, -15.848715613209924 ] } },
{ "type": "Feature", "properties": { "COD": "SWPR", "TIPO": "Aeródromo", "NOME": "Pires do Rio", "MUNICIPIO": "Pires do Rio", "ALT_M": 781, "COMP_M": 1080, "LARG_M": 18, "REVESTIMENTO": "Asfalto", "LINK_DMA": null, "LINK_DPJ": null, "LINK_DOR": null }, "geometry": { "type": "Point", "coordinates": [ -48.334596194537298, -17.318716135407783 ] } },
{ "type": "Feature", "properties": { "COD": "SWWA", "TIPO": "Aeródromo", "NOME": "Porangatu", "MUNICIPIO": "Porangatu", "ALT_M": 366, "COMP_M": 1500, "LARG_M": 23, "REVESTIMENTO": "Asfalto", "LINK_DMA": "DMA_AERO_0022", "LINK_DPJ": null, "LINK_DOR": null }, "geometry": { "type": "Point", "coordinates": [ -49.158857835838539, -13.404371841611271 ] } },
{ "type": "Feature", "properties": { "COD": "SWPZ", "TIPO": "Aeródromo", "NOME": "Oriçanga de Abreu", "MUNICIPIO": "Posse", "ALT_M": 827, "COMP_M": 1500, "LARG_M": 25, "REVESTIMENTO": "Asfalto", "LINK_DMA": "DMA_AERO_0023", "LINK_DPJ": null, "LINK_DOR": null }, "geometry": { "type": "Point", "coordinates": [ -46.345265920716464, -14.11812918333627 ] } },
{ "type": "Feature", "properties": { "COD": "SJQN", "TIPO": "Aeródromo", "NOME": "Quirinópolis", "MUNICIPIO": "Quirinópolis", "ALT_M": 586, "COMP_M": 1500, "LARG_M": 30, "REVESTIMENTO": "Asfalto", "LINK_DMA": "DMA_AERO_0024", "LINK_DPJ": null, "LINK_DOR": null }, "geometry": { "type": "Point", "coordinates": [ -50.410081154504418, -18.447621059151309 ] } },
{ "type": "Feature", "properties": { "COD": "SWLC", "TIPO": "Aeroporto", "NOME": "General Leite de Castro", "MUNICIPIO": "Rio Verde", "ALT_M": 751, "COMP_M": 1500, "LARG_M": 30, "REVESTIMENTO": "Asfalto", "LINK_DMA": null, "LINK_DPJ": null, "LINK_DOR": null }, "geometry": { "type": "Point", "coordinates": [ -50.956651369819426, -17.837328676594055 ] } },
{ "type": "Feature", "properties": { "COD": "SWHG", "TIPO": "Aeródromo", "NOME": "Santa Helena de Goiás", "MUNICIPIO": "Santa Helena de Goiás", "ALT_M": 485, "COMP_M": 1000, "LARG_M": 20, "REVESTIMENTO": "Asfalto", "LINK_DMA": null, "LINK_DPJ": null, "LINK_DOR": null }, "geometry": { "type": "Point", "coordinates": [ -50.592345924805265, -17.784387559652092 ] } },
{ "type": "Feature", "properties": { "COD": "SIFH", "TIPO": "Aeródromo", "NOME": "Santa Rita do Araguaia", "MUNICIPIO": "Santa Rita do Araguaia", "ALT_M": 751, "COMP_M": 1200, "LARG_M": 23, "REVESTIMENTO": "Cascalho", "LINK_DMA": null, "LINK_DPJ": null, "LINK_DOR": null }, "geometry": { "type": "Point", "coordinates": [ -53.19392339962846, -17.320279874730719 ] } },
{ "type": "Feature", "properties": { "COD": "SWUA", "TIPO": "Aeródromo", "NOME": "São Miguel do Araguaia", "MUNICIPIO": "São Miguel do Araguaia", "ALT_M": 381, "COMP_M": 1500, "LARG_M": 30, "REVESTIMENTO": "Asfalto", "LINK_DMA": "DMA_AERO_0026", "LINK_DPJ": null, "LINK_DOR": null }, "geometry": { "type": "Point", "coordinates": [ -50.197594855773588, -13.33131893590711 ] } },
{ "type": "Feature", "properties": { "COD": "SWWU", "TIPO": "Aeródromo", "NOME": "Uruaçu", "MUNICIPIO": "Uruaçu", "ALT_M": 520, "COMP_M": 1440, "LARG_M": 30, "REVESTIMENTO": "Asfalto", "LINK_DMA": "DMA_AERO_0027", "LINK_DPJ": null, "LINK_DOR": null }, "geometry": { "type": "Point", "coordinates": [ -49.090699222916342, -14.546387840912576 ] } },
{ "type": "Feature", "properties": { "COD": "35", "TIPO": "Aeródromo", "NOME": "Alvorada do Norte", "MUNICIPIO": "Alvorada do Norte", "ALT_M": null, "COMP_M": null, "LARG_M": null, "REVESTIMENTO": null, "LINK_DMA": "DMA_AERO_0002", "LINK_DPJ": null, "LINK_DOR": null }, "geometry": { "type": "Point", "coordinates": [ -46.523533543055727, -14.510779255703723 ] } },
{ "type": "Feature", "properties": { "COD": "36", "TIPO": "Aeródromo", "NOME": "Caiapônia", "MUNICIPIO": "Caiapônia", "ALT_M": null, "COMP_M": null, "LARG_M": null, "REVESTIMENTO": null, "LINK_DMA": "DMA_AERO_0006", "LINK_DPJ": null, "LINK_DOR": null }, "geometry": { "type": "Point", "coordinates": [ -51.852490277777775, -16.927356944444444 ] } },
{ "type": "Feature", "properties": { "COD": "37", "TIPO": "Aeródromo", "NOME": "Goiás", "MUNICIPIO": "Goiás", "ALT_M": null, "COMP_M": null, "LARG_M": null, "REVESTIMENTO": null, "LINK_DMA": "DMA_AERO_0012", "LINK_DPJ": null, "LINK_DOR": null }, "geometry": { "type": "Point", "coordinates": [ -50.193209166666669, -15.920623611111111 ] } },
{ "type": "Feature", "properties": { "COD": "38", "TIPO": "Aeródromo", "NOME": "Iporá", "MUNICIPIO": "Iporá", "ALT_M": null, "COMP_M": null, "LARG_M": null, "REVESTIMENTO": null, "LINK_DMA": "DMA_AERO_0015", "LINK_DPJ": null, "LINK_DOR": null }, "geometry": { "type": "Point", "coordinates": [ -51.089235833333333, -16.405603055555556 ] } },
{ "type": "Feature", "properties": { "COD": "39", "TIPO": "Aeródromo", "NOME": "Luziânia", "MUNICIPIO": "Luziânia", "ALT_M": null, "COMP_M": null, "LARG_M": null, "REVESTIMENTO": null, "LINK_DMA": null, "LINK_DPJ": null, "LINK_DOR": null }, "geometry": { "type": "Point", "coordinates": [ -47.968391666666669, -16.261745833333332 ] } },
{ "type": "Feature", "properties": { "COD": "40", "TIPO": "Aeródromo", "NOME": "Palmeiras de Goiás", "MUNICIPIO": "Palmeiras de Goiás", "ALT_M": null, "COMP_M": null, "LARG_M": null, "REVESTIMENTO": null, "LINK_DMA": "DMA_AERO_0020", "LINK_DPJ": null, "LINK_DOR": null }, "geometry": { "type": "Point", "coordinates": [ -49.879337777777778, -16.824976944444444 ] } },
{ "type": "Feature", "properties": { "COD": "41", "TIPO": "Aeródromo", "NOME": "São José dos Bandeirantes", "MUNICIPIO": "Nova Crixás", "ALT_M": null, "COMP_M": null, "LARG_M": null, "REVESTIMENTO": null, "LINK_DMA": "DMA_AERO_0025", "LINK_DPJ": null, "LINK_DOR": null }, "geometry": { "type": "Point", "coordinates": [ -50.800738055555556, -13.70869 ] } },
{ "type": "Feature", "properties": { "COD": "42", "TIPO": "Aeródromo", "NOME": "Crixás", "MUNICIPIO": "Crixás", "ALT_M": null, "COMP_M": null, "LARG_M": null, "REVESTIMENTO": null, "LINK_DMA": "DMA_AERO_0011", "LINK_DPJ": null, "LINK_DOR": null }, "geometry": { "type": "Point", "coordinates": [ -49.934556053547432, -14.538129935134364 ] } },
{ "type": "Feature", "properties": { "COD": "43", "TIPO": "Aeródromo", "NOME": "Goiatuba", "MUNICIPIO": "Goiatuba", "ALT_M": null, "COMP_M": null, "LARG_M": null, "REVESTIMENTO": null, "LINK_DMA": "DMA_AERO_0013", "LINK_DPJ": null, "LINK_DOR": "DOR_PT_0001" }, "geometry": { "type": "Point", "coordinates": [ -49.343969702768518, -17.999319876217275 ] } }
]
}
