{
"type": "FeatureCollection",
"name": "area_infuencia",
"crs": { "type": "name", "properties": { "name": "urn:ogc:def:crs:EPSG::4674" } },
"features": [
{"type":"Feature","properties":{"id":1,"NOME":"Área de Influência da GO-174, GO-206, GO-210 e GO-401","AREA_KM2":62331.46},"geometry":{"type":"MultiPolygon","coordinates":[[[[-52.223506984728282,-15.896130813016903],[-52.125442462679374,-15.908354922413579],[-52.037644567213121,-15.90456298672899],[-51.9918496516377,-15.917688917944876],[-51.98514084234958,-15.920897478908758],[-51.943429549819101,-15.898145864801226],[-51.875466394856851,-15.883561496783575],[-51.833171727605666,-15.891437055513107],[-51.763458448481295,-15.887061745107809],[-51.722913905392225,-15.884436558864632],[-51.694328544077635,-15.885894995666398],[-51.677118989816805,-15.869268816126276],[-51.604780524449261,-15.854392760748272],[-51.546443052378663,-15.866935317243453],[-51.44464416361545,-15.884728246224984],[-51.400599372202144,-15.921480853629465],[-51.3766810086532,-15.937815345809232],[-51.356846268149191,-15.939565469971351],[-51.336136465564131,-15.930814849160759],[-51.31250978937554,-15.923814352512288],[-51.293258423592242,-15.917980605305228],[-51.2594226897913,-15.917688917944874],[-51.197293282036107,-15.939273782610996],[-51.159082237829864,-15.923814352512288],[-51.136622311082682,-15.922939290431229],[-51.112120572813033,-15.90237533152634],[-51.09133784838788,-15.887936807188865],[-51.07310738836582,-15.883780262303835],[-51.050064086897933,-15.884290715184454],[-50.975902575528174,-15.879550795578719],[-50.971016812242262,-15.875248407013512],[-50.9577450373462,-15.874154579412188],[-50.942066841727225,-15.868102066684864],[-50.931274409394163,-15.866497786202922],[-50.905678843523184,-15.870289721887511],[-50.877093482208586,-15.876852687495454],[-50.850477010576377,-15.871966924209541],[-50.816422511255162,-15.870946018448306],[-50.75144915173653,-15.854830291788801],[-50.743974663127489,-15.852642636586154],[-50.723848235263127,-15.844511851416314],[-50.694424272787508,-15.836308144406386],[-50.638347377759644,-15.82059348786737],[-50.627554945426589,-15.816400482062296],[-50.624710993663143,-15.81494204526053],[-50.622632721220626,-15.814686818820222],[-50.613189342929203,-15.816072333781898],[-50.606990986521701,-15.817093239543134],[-50.600719708274113,-15.818369371744676],[-50.571332206718544,-15.841084524932166],[-50.56218051578746,-15.84374617209539],[-50.540231041920897,-15.855231361909288],[-50.537131863717157,-15.856872103311273],[-50.528636469346878,-15.870070956367247],[-50.509895556444192,-15.877946515096777],[-50.506176542599697,-15.878456967977396],[-50.496405016027872,-15.874519188612631],[-50.494035056225002,-15.873935813891924],[-50.491373409061779,-15.874227501252276],[-50.482914475611544,-15.878748655337748],[-50.476752580124078,-15.884035488744146],[-50.461985907506204,-15.892567344034472],[-50.456917839620068,-15.894791460157164],[-50.4495891946912,-15.894353929116633],[-50.441239644001108,-15.894791460157164],[-50.427384494384341,-15.901135660244842],[-50.41764942873256,-15.9007710510444],[-50.409737409082979,-15.898729239521932],[-50.402955677954772,-15.898911544122152],[-50.371818052237082,-15.89420808543646],[-50.342795159881959,-15.897963560201006],[-50.325184535500647,-15.900916894724579],[-50.315340087088735,-15.895557139478093],[-50.310928315763391,-15.893551788875666],[-50.294994893704114,-15.889285861230503],[-50.279863611885801,-15.88520223818556],[-50.27800410496355,-15.884655324384898],[-50.276035215281169,-15.88494701174525],[-50.265607392148546,-15.890598454352093],[-50.254195124174736,-15.898145864801226],[-50.251971008052045,-15.900406441843963],[-50.250147962049837,-15.9023388706063],[-50.248251994207536,-15.903177471767316],[-50.241616106759508,-15.903760846488021],[-50.23993890443748,-15.904088994768419],[-50.234068696310374,-15.90718817297217],[-50.231188283626885,-15.909339367254773],[-50.228708941063886,-15.913495912139803],[-50.210988933922444,-15.926585382435643],[-50.207306380997984,-15.929319951438952],[-50.204644733834762,-15.92939287327904],[-50.20187370391141,-15.927934436477276],[-50.197717159026382,-15.92611139047507],[-50.191372958938693,-15.925564476674404],[-50.187034109453442,-15.926038468634978],[-50.182877564568415,-15.925236328394009],[-50.179012707043739,-15.92534571115414],[-50.16719936894944,-15.931070075601069],[-50.164938791906707,-15.935518307846451],[-50.1615479263426,-15.939273782610996],[-50.154802656134443,-15.943393866575983],[-50.146489566364387,-15.951087120705294],[-50.142223638719223,-15.956410415031735],[-50.137374336353353,-15.958051156433722],[-50.130519683385046,-15.959400210475355],[-50.128149723582183,-15.963192146159944],[-50.119873094732164,-15.966473628963914],[-50.113164285444043,-15.96625486344365],[-50.109955724480159,-15.968478979566342],[-50.102298931270894,-15.977266061296977],[-50.100694650788952,-15.979016185459095],[-50.099454979507449,-15.979672482019888],[-50.092782631139379,-15.979599560179803],[-50.081479745925698,-15.982917503903819],[-50.077140896440447,-15.986818822348539],[-50.075390772278325,-15.989553391351848],[-50.074552171117311,-15.992506725875423],[-50.074187561916872,-15.99699141904085],[-50.072947890635369,-15.999324917923675],[-50.070614391752549,-16.000929198405615],[-50.065655706626544,-16.002351174287337],[-50.035320221149831,-16.003226236368395],[-50.03333917782745,-16.0034693091687],[-50.045760197922483,-16.012973455660205],[-50.047242942004281,-16.014747887102352],[-50.050791804888568,-16.025540319435414],[-50.05356283481192,-16.034290940246006],[-50.054583740573158,-16.035846606167887],[-50.063698970584191,-16.041242822334414],[-50.074953241237807,-16.04804886074265],[-50.076241527079368,-16.048972537383769],[-50.085113684290107,-16.05896282947586],[-50.099309135827284,-16.074689639654896],[-50.108740360478699,-16.082467969264307],[-50.125876992899435,-16.098073243043192],[-50.138395242114591,-16.109546279217078],[-50.144107452921503,-16.115209875463936],[-50.147024326525028,-16.116959999626054],[-50.149455054527969,-16.118248285467612],[-50.161025319821974,-16.119755336829435],[-50.166518765108627,-16.121578382831643],[-50.175002005838891,-16.123741730754261],[-50.189246071936132,-16.127557973718879],[-50.190704508737895,-16.127557973718879],[-50.200524649869777,-16.125346011236203],[-50.203441523473309,-16.124325105474966],[-50.204170741874194,-16.12500570931579],[-50.206358397076841,-16.126755833477908],[-50.209421114360545,-16.128676108600235],[-50.21445272132663,-16.130134545401997],[-50.215692392608133,-16.133902173806558],[-50.221161530614751,-16.134631392207439],[-50.229012782064252,-16.131665904043849],[-50.231176129986871,-16.131131143883202],[-50.233485321589662,-16.132346507884673],[-50.23708279903402,-16.139225468132999],[-50.246246643605105,-16.142628487337117],[-50.26204637562423,-16.156143335033473],[-50.271817902196055,-16.162390306001033],[-50.283072172849671,-16.170363093850682],[-50.285332749892412,-16.173109816494005],[-50.28735025413485,-16.173668883934685],[-50.292624933901237,-16.173790420334832],[-50.296246718625625,-16.17670729393836],[-50.299090670389063,-16.182127817384924],[-50.300403263510653,-16.183780712426923],[-50.307112072798773,-16.188374788352483],[-50.309664337201866,-16.19262856235763],[-50.311463075924046,-16.198389387724603],[-50.308351744080277,-16.200115204606689],[-50.298118379187891,-16.213338364942697],[-50.300281727110509,-16.215501712865315],[-50.301813085752357,-16.219488106790138],[-50.302761069673508,-16.221529918312608],[-50.304924417596119,-16.223304349754759],[-50.311876299684535,-16.227387972799701],[-50.313699345686736,-16.22994023720279],[-50.314744558728002,-16.231058372084142],[-50.320942915135497,-16.236381666410583],[-50.325342532820827,-16.238593628893259],[-50.326387745862093,-16.239638841934525],[-50.331151972747854,-16.247563015224113],[-50.335551590433177,-16.254004444431914],[-50.341117957559923,-16.270338936611676],[-50.346757246526749,-16.281228598064853],[-50.352639608293863,-16.294840674881328],[-50.353295904854654,-16.297781855764885],[-50.356091242058035,-16.316911685148035],[-50.356164163898129,-16.319488256831153],[-50.355216179976978,-16.341194657897425],[-50.35550786733733,-16.345229666382306],[-50.35682046045892,-16.364991485046222],[-50.357671215259948,-16.378141723542136],[-50.359202573901804,-16.382881643147872],[-50.365716924949695,-16.40213300893117],[-50.37089437559596,-16.416668762388763],[-50.374127243839872,-16.421578832954705],[-50.381905573449288,-16.433270634648856],[-50.384409223292316,-16.443674150501447],[-50.388103929856783,-16.458258518519095],[-50.388249773536963,-16.461540001323069],[-50.388468539057229,-16.484972219271427],[-50.388565768177344,-16.503178372013458],[-50.38995128313902,-16.511394232663402],[-50.389343601138279,-16.519707322433462],[-50.388517153617279,-16.529430234445229],[-50.375293993281275,-16.527801646683258],[-50.373568176399189,-16.527850261243316],[-50.366105841430155,-16.530232374686197],[-50.364355717268033,-16.531301895007491],[-50.359299803021912,-16.538156547975788],[-50.350573489491353,-16.54092757789914],[-50.348580292528943,-16.542070020060525],[-50.34748646492762,-16.543528456862287],[-50.344885585964469,-16.54724747070679],[-50.342843774442002,-16.54928928222926],[-50.33698571995491,-16.552036004872591],[-50.331759654748581,-16.555998091517385],[-50.325780063861345,-16.557796830239557],[-50.320092160334461,-16.561515844084056],[-50.307695447519457,-16.569731704734],[-50.298750368468639,-16.575370993700822],[-50.300476185350732,-16.585993275073683],[-50.301424169271876,-16.588667075876916],[-50.3026881478334,-16.600626257651388],[-50.291798486380223,-16.631545117848809],[-50.292284631980813,-16.636601032094926],[-50.297048858866575,-16.641170800740458],[-50.301424169271883,-16.660324937403637],[-50.303368751674235,-16.670825682376346],[-50.299479586869531,-16.680062448787524],[-50.302202002232825,-16.688910298718231],[-50.322620117457532,-16.702230688174353],[-50.330884592667537,-16.713314807867768],[-50.326314824022006,-16.730232674768242],[-50.325536991061057,-16.734510756053417],[-50.334093153631407,-16.745983792227303],[-50.34109365027988,-16.752498143275186],[-50.358886579261416,-16.763387804728367],[-50.374054321999779,-16.781472421070251],[-50.382416026329899,-16.805779701099667],[-50.384263379612136,-16.808015970862375],[-50.408570659641555,-16.821530818558731],[-50.40750113932026,-16.833878916813674],[-50.4088623470019,-16.854005344678029],[-50.413140428287079,-16.869464774776738],[-50.41887694637402,-16.87607635494474],[-50.421793819977552,-16.887063245518036],[-50.422960569418962,-16.889202286160625],[-50.438517228637792,-16.892605305364743],[-50.456893532340032,-16.905245090980038],[-50.459518718583205,-16.911273296427336],[-50.452032076334149,-16.928093934207691],[-50.446878932967913,-16.938497450060282],[-50.445420496166143,-16.942678302225342],[-50.445226037925906,-16.949776027993931],[-50.425099610061551,-16.96076291856723],[-50.425002380941429,-16.964263166891467],[-50.438128312157318,-16.989639967242177],[-50.451448701613437,-16.998001671572297],[-50.45631015761932,-17.005196626461004],[-50.462046675706262,-17.009571936866298],[-50.463894028988499,-17.019780994478651],[-50.451837618093904,-17.041754775625243],[-50.432197335830139,-17.067617721576543],[-50.42072429965625,-17.077924008309019],[-50.409931867323188,-17.114482157473262],[-50.40954295084272,-17.116815656356085],[-50.416737905731424,-17.148706807754678],[-50.395055811945191,-17.220267440161283],[-50.378332403284951,-17.277049246310003],[-50.377943486804476,-17.281132869354945],[-50.379790840086713,-17.341803840308373],[-50.38115204776836,-17.388279359724621],[-50.380860360408008,-17.392849128370152],[-50.38027698568731,-17.394599252532263],[-50.357719829820006,-17.415309055117326],[-50.354608497976244,-17.417156408399563],[-50.290437278698583,-17.437380065384037],[-50.287520405095052,-17.439130189546159],[-50.268366268431869,-17.472285319506284],[-50.246489716405392,-17.492508976490761],[-50.232877639588921,-17.51049636371253],[-50.229863536865274,-17.514968903237943],[-50.210903858442322,-17.520705421324884],[-50.200694800829972,-17.519927588363945],[-50.193791533301614,-17.525275189970415],[-50.191846950899262,-17.527900376213594],[-50.187860556974435,-17.523913982288768],[-50.180082227365027,-17.515552277958648],[-50.1794016235242,-17.508746239550412],[-50.171039919194087,-17.496884286896051],[-50.156163863816083,-17.493578496812052],[-50.137690330993728,-17.485994625442874],[-50.113091363603964,-17.480063649115696],[-50.09986820326796,-17.481716544157699],[-50.09102035333725,-17.484633417761227],[-50.081783586926072,-17.490467164968287],[-50.076727672679958,-17.4916339144097],[-50.072255133154542,-17.487550291364759],[-50.066032469467011,-17.482980522719227],[-50.064768490905479,-17.476563400791463],[-50.059420889299005,-17.469854591503342],[-50.04979520640736,-17.465187593737692],[-50.046781103683713,-17.457603722368514],[-50.04143350207724,-17.453422870203454],[-50.037738795512766,-17.452645037242515],[-50.031516131825235,-17.455464681725925],[-50.025001780777352,-17.441074771948511],[-50.016640076447231,-17.42580980009004],[-49.999138834826049,-17.406752892546976],[-49.996027502982287,-17.40276649862215],[-49.995055211781107,-17.388862734445325],[-49.989707610174634,-17.379820426274382],[-49.987374111291814,-17.368055702740143],[-49.983873862967577,-17.356971583046729],[-49.980179156403103,-17.351818439680493],[-49.958108146136396,-17.342192756788844],[-49.953149461010398,-17.332469844777076],[-49.947996317644176,-17.328872367332728],[-49.917271915686996,-17.335095031020259],[-49.909688044317818,-17.350262773758615],[-49.898603924624403,-17.35084614847932],[-49.888492096132168,-17.356290979205912],[-49.879352558841099,-17.366402807698147],[-49.846878032721797,-17.384487424040035],[-49.793596474897313,-17.387404297643563],[-49.772206068471426,-17.405488913985451],[-49.702784476707407,-17.414822909516747],[-49.638807715669984,-17.426879320411334],[-49.620139724607391,-17.445547311473927],[-49.608666688433509,-17.464409760776757],[-49.602249566505741,-17.475493880470172],[-49.599916067622921,-17.487161374884291],[-49.600110525863151,-17.497078745136292],[-49.595249069857267,-17.504273700024999],[-49.590193155611153,-17.512829862595357],[-49.579109035917739,-17.514774444997709],[-49.550523674603141,-17.517885776841474],[-49.541189679071834,-17.519441442763355],[-49.534967015384304,-17.520219275724298],[-49.528355435216305,-17.525080731730181],[-49.516882399042423,-17.525664106450886],[-49.507353945270886,-17.522358316366887],[-49.502298031024772,-17.522552774607121],[-49.492380660772767,-17.529164354775123],[-49.477407376274648,-17.532664603099359],[-49.46029505113394,-17.51730240212077],[-49.440460310629931,-17.513996612036767],[-49.417903154762641,-17.513802153796529],[-49.413041698756757,-17.508357323069941],[-49.396707206576991,-17.507385031868765],[-49.387178752805461,-17.509912988991825],[-49.36092689037369,-17.507579490108998],[-49.345953605875565,-17.500967909941],[-49.32417428296921,-17.499801160499587],[-49.306673041348027,-17.504273700024999],[-49.296755671096022,-17.512246487874648],[-49.252613650562601,-17.518274693321942],[-49.213722002515532,-17.523913982288768],[-49.196998593855291,-17.563972379777248],[-49.177941686312231,-17.614531522238433],[-49.152273198601165,-17.697759649059158],[-49.151106449159755,-17.729650800457755],[-49.158106945808228,-17.755708204649292],[-49.163940693015284,-17.763875450739175],[-49.175997103909879,-17.781765608840825],[-49.196998593855291,-17.791488520852592],[-49.206332589386591,-17.805100597669067],[-49.213722002515532,-17.831741376581309],[-49.224611663968709,-17.869855191667433],[-49.234334575980476,-17.899412844183207],[-49.254363774724709,-17.975446016115228],[-49.261947646093887,-18.002475711507941],[-49.260780896652477,-18.010254041117353],[-49.268170309781418,-18.056924018773834],[-49.26661464385954,-18.067424763746544],[-49.26894814274236,-18.076564301037603],[-49.269142600982597,-18.089981919613844],[-49.286838300844011,-18.140929978555501],[-49.284699260201421,-18.153764222411034],[-49.289366257967075,-18.181766209004923],[-49.279448887715077,-18.198684075905394],[-49.250280151679775,-18.24807646892517],[-49.235306867181656,-18.294746446581652],[-49.207693797068238,-18.379238551963901],[-49.19962378009847,-18.402767999032378],[-49.191561285782562,-18.4142516044543],[-49.194560229999958,-18.419153849999955],[-49.199543101488267,-18.417183700019649],[-49.207769258491062,-18.414903181246597],[-49.210294118561222,-18.41645067612831],[-49.211597272145823,-18.419301324594624],[-49.210945695353523,-18.421826184664788],[-49.201823620261315,-18.428341952587793],[-49.198077053705589,-18.434287590817533],[-49.193108780664296,-18.440314676146315],[-49.191154050287402,-18.446341761475093],[-49.191561285782583,-18.450169775129858],[-49.19359746325852,-18.453427659091361],[-49.196611005922911,-18.45839593213265],[-49.199543101488267,-18.461898157391264],[-49.205895975213195,-18.463852887768166],[-49.212900425730425,-18.465889065244106],[-49.218113040068829,-18.469798525997909],[-49.222266842119744,-18.474929693237275],[-49.226257749972582,-18.47875770689204],[-49.230330104924462,-18.484051768329479],[-49.233750883084035,-18.490811877549596],[-49.235705613460937,-18.497327645472602],[-49.23945218001667,-18.501807235919667],[-49.244094664661802,-18.506612614762883],[-49.24466479435506,-18.513779959478185],[-49.244990582751214,-18.518829679618513],[-49.247596889920416,-18.522739140372316],[-49.251913586169401,-18.526485706928046],[-49.256148835319358,-18.527381625017458],[-49.264374992322146,-18.52730017791842],[-49.271786678334564,-18.528440437304948],[-49.277487975267199,-18.531616874167412],[-49.284492425784421,-18.536422253010628],[-49.287668862646889,-18.541879208646144],[-49.288646227835343,-18.546603140390321],[-49.289379251726679,-18.558901652344993],[-49.290926746608392,-18.563869925386282],[-49.294347524767971,-18.566639126753557],[-49.298582773917921,-18.567697939041047],[-49.303143811464039,-18.567290703545861],[-49.314709299527372,-18.563951372485324],[-49.32228387973786,-18.561507959514195],[-49.325623210798405,-18.561915195009384],[-49.3282295179676,-18.564358607980509],[-49.331080166433921,-18.569815563616025],[-49.334419497494459,-18.578937638708233],[-49.33824751114922,-18.588304055097552],[-49.342645654497247,-18.598159154081095],[-49.348428398528917,-18.605978075588698],[-49.357469026522089,-18.61624041006743],[-49.37066345656617,-18.633099959568206],[-49.374002787626708,-18.638638362302757],[-49.378971060668,-18.644176765037312],[-49.385161040194852,-18.647353201899776],[-49.392735620405347,-18.648330567088227],[-49.400147306417757,-18.647923331593041],[-49.405197026558085,-18.646457283810363],[-49.409676617005154,-18.644339659235388],[-49.415215019739705,-18.639289939095061],[-49.42107921087041,-18.631715358884566],[-49.423522623841535,-18.624303672872148],[-49.426291825208814,-18.61656619846358],[-49.436146924192357,-18.606222416885814],[-49.445024657987446,-18.596693106298421],[-49.456020016357513,-18.579589215500537],[-49.464897750152609,-18.573725024369832],[-49.478417968592844,-18.565417420268002],[-49.48281611194087,-18.561182171118048],[-49.486399784298527,-18.55173430762969],[-49.487295702387939,-18.542693679636521],[-49.487295702387939,-18.532675686454901],[-49.48794727918024,-18.526648601126123],[-49.487621490784086,-18.516874949241615],[-49.486807019793709,-18.508323003842673],[-49.490716480547512,-18.502784601108118],[-49.491693845735966,-18.500504082335066],[-49.491775292835001,-18.497979222264902],[-49.495033176796504,-18.494151208610138],[-49.500815920828167,-18.491952136936124],[-49.504481040284858,-18.493743973114952],[-49.510426678514598,-18.492277925332274],[-49.516372316744345,-18.493743973114952],[-49.523376767261574,-18.493662526015914],[-49.529485299689391,-18.493336737619764],[-49.534616466928753,-18.492603713728425],[-49.540317763861381,-18.4953729150957],[-49.544878801407485,-18.499852505542766],[-49.546100507893051,-18.505228014079247],[-49.544960248506527,-18.511010758110913],[-49.541702364545024,-18.520295727401194],[-49.540887893554647,-18.525182553343448],[-49.54072499935657,-18.530639508978965],[-49.543657094921926,-18.536666594307743],[-49.549276944755519,-18.54342670352786],[-49.555466924282371,-18.547254717182625],[-49.559132043739062,-18.547580505578775],[-49.564018869681313,-18.545951563598024],[-49.570371743406241,-18.54342670352786],[-49.576317381635981,-18.54342670352786],[-49.592036671750229,-18.547254717182625],[-49.603765054011639,-18.547499058479737],[-49.622823675186424,-18.552304437322952],[-49.629665231505577,-18.553607590907554],[-49.640171907281427,-18.555969556779644],[-49.649456876571705,-18.561019276919971],[-49.652633313434173,-18.567290703545861],[-49.65173739534476,-18.572666212082343],[-49.647746487491915,-18.57739014382652],[-49.638461518201638,-18.585209065334126],[-49.634714951645911,-18.588955631889853],[-49.633900480655534,-18.591724833257128],[-49.634633504546869,-18.59571574110997],[-49.636425340725694,-18.599299413467623],[-49.642208084757364,-18.602557297429122],[-49.647990828789027,-18.603045980023349],[-49.6576830335745,-18.598973625071473],[-49.665257613784988,-18.592702198445579],[-49.673809559183937,-18.590177338375415],[-49.681791374889613,-18.589932997078304],[-49.6936826513491,-18.591806280356167],[-49.704840903917244,-18.596285870803232],[-49.71200824863255,-18.602231509032972],[-49.723410842497827,-18.611923713818449],[-49.731881340797727,-18.617054881057815],[-49.738071320324586,-18.617869352048192],[-49.746216030228339,-18.616321857166476],[-49.75753717699456,-18.61086490153096],[-49.765356098502167,-18.611353584125183],[-49.770894501236718,-18.613552655799197],[-49.773582255504955,-18.6181136933453],[-49.77350080840592,-18.622837625089478],[-49.773582255504955,-18.626665638744242],[-49.776840139466458,-18.634484560251849],[-49.781971306705827,-18.641163222372928],[-49.784088931280799,-18.643199399848868],[-49.787916944935567,-18.64344374114598],[-49.792477982481671,-18.644828341829619],[-49.798912303305634,-18.644909788928654],[-49.819111183866951,-18.633832983459548],[-49.822613409125566,-18.633181406667248],[-49.828151811860117,-18.635624819638373],[-49.832142719712962,-18.637090867421051],[-49.835889286268689,-18.637579550015275],[-49.838495593437891,-18.636765079024901],[-49.851934364779083,-18.624873802565418],[-49.855029354542509,-18.62405933157504],[-49.859101709494389,-18.624873802565418],[-49.866431948407772,-18.625036696763491],[-49.870015620765422,-18.622674730891404],[-49.870259962062534,-18.619172505632786],[-49.8721332453404,-18.613308314502085],[-49.882232685621055,-18.610050430540582],[-49.888748453544061,-18.610702007332883],[-49.892657914297864,-18.614448573888609],[-49.895915798259367,-18.617950799147224],[-49.903653272667931,-18.622023154099104],[-49.907318392124623,-18.622267495396216],[-49.913182583255328,-18.621371577306803],[-49.920512822168703,-18.623489201881778],[-49.931426733439736,-18.625036696763491],[-49.938186842659853,-18.624222225773117],[-49.945842869969397,-18.622756177990439],[-49.967996480907608,-18.617299222354923],[-49.975571061118103,-18.614448573888609],[-49.980050651565172,-18.606792546579079],[-49.988521149865072,-18.60508215749929],[-49.998376248848622,-18.604512027806027],[-50.001959921206272,-18.602475850330087],[-50.013688303467681,-18.600113884457997],[-50.021425777876246,-18.600358225755112],[-50.02834878129444,-18.602231509032976],[-50.033968631128033,-18.607932805965604],[-50.039099798367396,-18.613959891294382],[-50.041298870041409,-18.618928164335674],[-50.04260202362601,-18.624873802565414],[-50.0443124127058,-18.63204114728072],[-50.049036344449981,-18.643769529542126],[-50.05196844001533,-18.647108860602664],[-50.056122242066245,-18.650773980059355],[-50.06092762090946,-18.652321474941068],[-50.067443388832466,-18.656801065388134],[-50.071027061190115,-18.660710526141937],[-50.073796262557394,-18.666248928876492],[-50.078520194301568,-18.672764696799497],[-50.082348207956329,-18.673334826492759],[-50.09709013288213,-18.671705884512008],[-50.102954324012835,-18.670484178026445],[-50.112320740402154,-18.67007694253126],[-50.121850050989543,-18.670402730927407],[-50.129180289902926,-18.66975115413511],[-50.137487894004757,-18.668285106352432],[-50.146609969096964,-18.66633037597553],[-50.155894938387242,-18.665271563688041],[-50.164446883786191,-18.665190116589006],[-50.172998829185133,-18.666981952767831],[-50.180899197791767,-18.670076942531256],[-50.191161532270499,-18.676266922058112],[-50.198328876985805,-18.680094935712876],[-50.202401231937685,-18.680420724109027],[-50.207776740474159,-18.679850594415765],[-50.22422905447975,-18.682456901584967],[-50.230581928204678,-18.682049666089778],[-50.241332945277634,-18.679687700217688],[-50.250047784874653,-18.678954676326352],[-50.256970788292847,-18.680502171208065],[-50.275866515269563,-18.687750963022406],[-50.295413819038572,-18.69198621217236],[-50.304861682526933,-18.695895672926163],[-50.313250733727799,-18.701108287264567],[-50.318219006769091,-18.706483795801045],[-50.322617150117118,-18.712185092733673],[-50.331331989714137,-18.725216628579684],[-50.338336440231366,-18.740040000604516],[-50.344689313956302,-18.751605488667849],[-50.351530870275454,-18.76056466956198],[-50.356580590415781,-18.771071345337823],[-50.360490051169585,-18.780030526231958],[-50.362444781546486,-18.786546294154959],[-50.364725300319535,-18.794935345355828],[-50.369123443667576,-18.804627550141294],[-50.371892645034848,-18.808699905093174],[-50.377349600670364,-18.815378567214253],[-50.384272604088558,-18.820183946057469],[-50.39201007849713,-18.82319748872186],[-50.397711375429758,-18.824011959712234],[-50.406344767927735,-18.824826430702608],[-50.418317491486256,-18.828410103060261],[-50.423041423230437,-18.833215481903476],[-50.425973518795786,-18.844699522867774],[-50.429720085351512,-18.859197106496456],[-50.434932699689917,-18.877278362482794],[-50.440389655325433,-18.890798580923029],[-50.442588726999446,-18.894382253280682],[-50.452525273082031,-18.905621952947865],[-50.461321559778085,-18.914825475139107],[-50.468244563196279,-18.91995664237847],[-50.477936767981753,-18.924354785726496],[-50.484126747508604,-18.925820833509174],[-50.491212645124868,-18.9289158232726],[-50.498054201444027,-18.930707659451429],[-50.50066050861323,-18.930544765253352],[-50.505221546159333,-18.932906731125442],[-50.507909300427571,-18.935594485393679],[-50.510189819200619,-18.939015263553259],[-50.51149297278522,-18.946019714070488],[-50.511411525686185,-18.951802458102154],[-50.507502064932382,-18.960272956402058],[-50.503429709980502,-18.970698185078867],[-50.500171826018999,-18.976318034912456],[-50.499357355028629,-18.98153064925086],[-50.500904849910341,-18.985277215806597],[-50.500334720217076,-18.987802075876761],[-50.49976459052381,-18.992526007620938],[-50.500090378919964,-18.996354021275703],[-50.502533791891089,-19.000915058821807],[-50.503022474485313,-19.004417284080422],[-50.501637873801677,-19.007430826744812],[-50.498217095642097,-19.009141215824599],[-50.493900399393112,-19.013213570776479],[-50.497809860146909,-19.033331004238754],[-50.500564699999956,-19.044229629999954],[-50.501149191207453,-19.046688328480911],[-50.507549903921351,-19.04545248301018],[-50.604001191078083,-18.976225349486398],[-50.664672162031508,-18.92216595870098],[-50.834628663997194,-18.860133780065905],[-50.849990864975787,-18.853522199897895],[-50.925829578667567,-18.783322775172941],[-50.929718743472272,-18.766988282993172],[-50.942552987327808,-18.744625585366109],[-50.997001294593694,-18.662564207986794],[-51.021503032863343,-18.638062469717141],[-51.049893935937703,-18.602865528234542],[-51.049893935937703,-18.563584963707005],[-51.056311057865472,-18.548417220968645],[-51.096563913594188,-18.448660143727917],[-51.095397164152772,-18.422991656016851],[-51.114648529936069,-18.397906543026494],[-51.121260110104075,-18.359792727940366],[-51.151595595580787,-18.296010425143177],[-51.18932049418644,-18.287648720813056],[-51.243379884971866,-18.255952027654697],[-51.25660304530787,-18.25711877709611],[-51.28285490773964,-18.234950537709281],[-51.30307856472411,-18.227950041060808],[-51.322524388747645,-18.206948551115392],[-51.33477525788247,-18.198975763265743],[-51.36199941151542,-18.199559137986448],[-51.377556070734244,-18.198781305025509],[-51.400502143082015,-18.175446316197267],[-51.434532335123201,-18.164167738263618],[-51.517371545463455,-18.077828279599128],[-51.538761951889342,-18.070438866470187],[-51.553346319906993,-18.043409171077474],[-51.555290902309345,-18.019490807528527],[-51.584654096584877,-17.991488820934638],[-51.58659867898723,-17.978849035319342],[-51.594377008596645,-17.973598662832988],[-51.608183543653354,-17.975543245235343],[-51.614600665581122,-17.974765412274401],[-51.620045496307711,-17.966598166184514],[-51.623740202872185,-17.957069712412984],[-51.644352776337129,-17.951819339926629],[-51.65174218946607,-17.952986089368043],[-51.658159311393838,-17.952208256407101],[-51.663020767399722,-17.947541258641454],[-51.660687268516895,-17.932956890623803],[-51.663215225639959,-17.931401224701919],[-51.676632844216194,-17.938985096071097],[-51.683827799104904,-17.937429430149216],[-51.694328544077607,-17.921872770930388],[-51.699578916563965,-17.92595639397533],[-51.708718453855028,-17.926150852215567],[-51.718830282347263,-17.920317105008504],[-51.742748645896206,-17.925373019254625],[-51.756360722712685,-17.921483854449917],[-51.770556174249862,-17.9164279402038],[-51.766861467685388,-17.901843572186149],[-51.763361219361158,-17.87636954271532],[-51.762388928159979,-17.858284926373432],[-51.746054435980213,-17.845839598998371],[-51.765111343523273,-17.83845018586943],[-51.787279582910102,-17.828921732097896],[-51.790001998273397,-17.812198323437659],[-51.795057912519518,-17.79955853782236],[-51.802058409167991,-17.798975163101655],[-51.811781321179758,-17.786918752207065],[-51.828699188080236,-17.755610975529173],[-51.827337980398589,-17.739859858070112],[-51.832782811125178,-17.732859361421639],[-51.839297162173054,-17.687939507927275],[-51.841873733856168,-17.662100869256012],[-51.847804710183347,-17.653277326605341],[-51.86433366060335,-17.620413884005568],[-51.865111493564285,-17.605440599507443],[-51.884751775828057,-17.570827032745552],[-51.887668649431582,-17.548075418638017],[-51.881445985744051,-17.530379718776601],[-51.882223818704986,-17.508405937630009],[-51.905364349292995,-17.456096671006705],[-51.912364845941468,-17.436845305223404],[-51.895058062560523,-17.41078790103187],[-51.890002148314402,-17.393870034131396],[-51.879112486861224,-17.340782934547146],[-51.879112486861224,-17.318225778679849],[-51.892530105437459,-17.305197076584083],[-51.901475184488284,-17.278361839431607],[-51.882612735185454,-17.239470191384537],[-51.897197103203119,-17.209718080628527],[-51.89408577135935,-17.173937764425226],[-51.889029857113236,-17.136990698780512],[-51.867444992447112,-17.088765055202146],[-51.864722577083818,-17.070874897100495],[-51.858499913396287,-17.058040653244962],[-51.857333163954877,-17.034511206176486],[-51.839637464093457,-16.963145032010118],[-51.830497926802401,-16.952838745277646],[-51.829331177360984,-16.93183725533223],[-51.822330680712518,-16.927948090527522],[-51.806774021493688,-16.926392424605641],[-51.797828942442862,-16.878944613988217],[-51.789661696352979,-16.864943620691271],[-51.783827949145916,-16.834802593454793],[-51.716739856264724,-16.774131622501368],[-51.714017440901429,-16.764214252249367],[-51.694571616877894,-16.738351306298068],[-51.684265330145422,-16.712099443866297],[-51.684848704866127,-16.699654116491235],[-51.689710160872011,-16.694792660485351],[-51.699821989364246,-16.69070903744041],[-51.699627531124008,-16.677485877104406],[-51.709544901376013,-16.662123676125812],[-51.727046142997196,-16.634899522492866],[-51.724907102354607,-16.620898529195923],[-51.747464258221903,-16.581812422908619],[-51.756409337272729,-16.57967338226603],[-51.762243084479792,-16.563922264806969],[-51.754270296630139,-16.554199352795202],[-51.756020420792261,-16.545643190224848],[-51.774688411854854,-16.529697614525549],[-51.782466741464269,-16.516085537709074],[-51.781299992022859,-16.50169562793166],[-51.791022904034627,-16.482055345667892],[-51.798606775403805,-16.448414070107177],[-51.803662689649919,-16.425467997759409],[-51.833803716886401,-16.410883629741758],[-51.836331674009458,-16.396299261724106],[-51.840804213534867,-16.386770807952576],[-51.872111990212758,-16.380742602505283],[-51.908670139377001,-16.373936564097047],[-51.926949213959126,-16.362657986163395],[-51.958256990637011,-16.312487760182677],[-51.987814643152781,-16.285846981270439],[-52.012705297902905,-16.280013234063379],[-52.036040286731151,-16.271845987973492],[-52.061125399721512,-16.253372455151133],[-52.074737476537983,-16.233926631127602],[-52.153104147352828,-16.212730682941949],[-52.171966596655651,-16.193284858918414],[-52.179939384505303,-16.178506032660529],[-52.168466348331407,-16.131252680283346],[-52.173716720817758,-16.121529768271579],[-52.169244181292349,-16.100528278326163],[-52.175855761460362,-16.075443165335805],[-52.17293888785683,-16.03810718321062],[-52.184995298751417,-16.017300151505438],[-52.189078921796366,-15.996493119800258],[-52.208135829339426,-15.98599237482755],[-52.213191743585547,-15.972185839770841],[-52.21319174358554,-15.952545557507081],[-52.212802827105072,-15.92794659011731],[-52.220678385834603,-15.914723429781308],[-52.222817426477192,-15.900868280164536],[-52.223506984728282,-15.896130813016903]]]]}}
]
}
