{
"type": "FeatureCollection",
"name": "obras_pontos",
"crs": { "type": "name", "properties": { "name": "urn:ogc:def:crs:EPSG::4674" } },
"features": [
{ "type": "Feature", "properties": { "Trecho": "Vias Urbanas de Bela vista de Goiás\n", "SRE": "488EGO0010", "RODOVIA": "GO-488", "LINK": "DOR_PT_0048", "LAT": "-16.973283", "LONG": "-48.957351", "EXT_M": null, "ORIGEM": "DOR", "TRANSPOSICAO": null }, "geometry": { "type": "Point", "coordinates": [ -48.957350808388576, -16.973282520568976 ] } },
{ "type": "Feature", "properties": { "Trecho": "Trecho: Entr. GO-213 / Entr. GO-217 (Entr. Caldas Novas)", "SRE": "309EGO0105", "RODOVIA": "GO-309", "LINK": "DOR_PT_0032", "LAT": "-17.295432", "LONG": "-48.300007", "EXT_M": "40", "ORIGEM": "DOR", "TRANSPOSICAO": "Ponte sobre o Córrego Andorinhas" }, "geometry": { "type": "Point", "coordinates": [ -48.300007462612406, -17.295431573897957 ] } },
{ "type": "Feature", "properties": { "Trecho": "Trecho: São Patrício / Diolândia - Contrato: 079/2024", "SRE": "460EGO0020", "RODOVIA": "GO-460", "LINK": "DOR_PT_0040", "LAT": "-15.363618", "LONG": "-49.866784", "EXT_M": "50", "ORIGEM": "DOR", "TRANSPOSICAO": "Ponte sobre o Ribeirão Olhos d'Água" }, "geometry": { "type": "Point", "coordinates": [ -49.866784, -15.363618 ] } },
{ "type": "Feature", "properties": { "Trecho": "Iaciara / Estiva", "SRE": "338EGO0110", "RODOVIA": "GO-338", "LINK": "DOR_PT_0035", "LAT": "-14.891916", "LONG": "-49.276942", "EXT_M": "44", "ORIGEM": "DOR", "TRANSPOSICAO": "Ponte sobre o Rio São Mateus" }, "geometry": { "type": "Point", "coordinates": [ -49.276942103606395, -14.891915725549596 ] } },
{ "type": "Feature", "properties": { "Trecho": "Iaciara / Estiva", "SRE": "108EGO0095", "RODOVIA": "GO-108", "LINK": "DOR_PT_0017", "LAT": "-13.786184", "LONG": "-46.349313", "EXT_M": "44", "ORIGEM": "DOR", "TRANSPOSICAO": "Ponte sobre o Rio São Mateus" }, "geometry": { "type": "Point", "coordinates": [ -46.349313000680738, -13.786183603512672 ] } },
{ "type": "Feature", "properties": { "Trecho": "Iaciara / Estiva", "SRE": "108EGO0095", "RODOVIA": "GO-108", "LINK": "DOR_PT_0018", "LAT": "-13.849855", "LONG": "-46.349195", "EXT_M": "44", "ORIGEM": "DOR", "TRANSPOSICAO": "Ponte sobre o Rio São Mateus" }, "geometry": { "type": "Point", "coordinates": [ -46.349195132007701, -13.849855050218491 ] } },
{ "type": "Feature", "properties": { "Trecho": "Iaciara / Estiva", "SRE": "236EGO0040", "RODOVIA": "GO-236", "LINK": "DOR_PT_0031", "LAT": "-14.455656", "LONG": "-46.858514", "EXT_M": "44", "ORIGEM": "DOR", "TRANSPOSICAO": "Ponte sobre o Rio São Mateus" }, "geometry": { "type": "Point", "coordinates": [ -46.858514011720736, -14.455655737118027 ] } },
{ "type": "Feature", "properties": { "Trecho": "Entr. GO-164 (Nova Crixás) / Divisa MT(Landi)", "SRE": "336EGO0060", "RODOVIA": "GO-336", "LINK": "DOR_PT_0033", "LAT": "-14.655546", "LONG": "-49.909931", "EXT_M": "30", "ORIGEM": "DOR", "TRANSPOSICAO": "Ponte sobre o Córrego Bandeirantes (Córrego Pintado)" }, "geometry": { "type": "Point", "coordinates": [ -49.909930698113449, -14.655545775277998 ] } },
{ "type": "Feature", "properties": { "Trecho": "Distrito Mineroindustrial de Catalão\n", "SRE": "508EGO0030", "RODOVIA": "GO-508", "LINK": "DOR_PT_0049", "LAT": "-18.170607", "LONG": "-47.94162", "EXT_M": null, "ORIGEM": "DOR", "TRANSPOSICAO": null }, "geometry": { "type": "Point", "coordinates": [ -47.941620020390673, -18.170606948627839 ] } },
{ "type": "Feature", "properties": { "Trecho": "Iaciara / Estiva", "SRE": "080EGO0310", "RODOVIA": "GO-080", "LINK": "DOR_PT_0016", "LAT": "-14.662572", "LONG": "-48.772973", "EXT_M": "44", "ORIGEM": "DOR", "TRANSPOSICAO": "Ponte sobre o Rio São Mateus" }, "geometry": { "type": "Point", "coordinates": [ -48.772973252844146, -14.662572311573946 ] } },
{ "type": "Feature", "properties": { "Trecho": "Perímetro urbano de Trindade", "SRE": "536EGO0020", "RODOVIA": "GO-536", "LINK": "DOR_PT_0041", "LAT": "-16.721867", "LONG": "-49.109936", "EXT_M": "73", "ORIGEM": "DOR", "TRANSPOSICAO": "Viaduto Portal da Fé" }, "geometry": { "type": "Point", "coordinates": [ -49.109935547905287, -16.721866941921597 ] } },
{ "type": "Feature", "properties": { "Trecho": null, "SRE": "147EGO0115", "RODOVIA": "GO-147", "LINK": "DOR_PT_0047", "LAT": "-16.640417", "LONG": "-49.207117", "EXT_M": null, "ORIGEM": "DOR", "TRANSPOSICAO": null }, "geometry": { "type": "Point", "coordinates": [ -49.207117319999952, -16.640417379999974 ] } },
{ "type": "Feature", "properties": { "Trecho": "Perímetro urbano de Trindade", "SRE": "060EGO0010", "RODOVIA": "GO-060", "LINK": "DOR_PT_0008", "LAT": "-16.645577", "LONG": "-49.480477", "EXT_M": "73", "ORIGEM": "DOR", "TRANSPOSICAO": "Viaduto Portal da Fé" }, "geometry": { "type": "Point", "coordinates": [ -49.48047715, -16.64557713 ] } },
{ "type": "Feature", "properties": { "Trecho": "Iaciara / Estiva", "SRE": "108EGO0095", "RODOVIA": "GO-108", "LINK": "DOR_PT_0019", "LAT": "-13.817552", "LONG": "-46.346509", "EXT_M": "44", "ORIGEM": "DOR", "TRANSPOSICAO": "Ponte sobre o Rio São Mateus" }, "geometry": { "type": "Point", "coordinates": [ -46.346509107066922, -13.817552163317208 ] } },
{ "type": "Feature", "properties": { "Trecho": "Entr. GO-050 (Campestre de Goiás) / Entr. GO-060 (Santa Bárbara de Goiás)", "SRE": "154EGO0010", "RODOVIA": "GO-154", "LINK": "DOR_PT_0024", "LAT": "-16.704087", "LONG": "-49.748854", "EXT_M": "90", "ORIGEM": "DOR", "TRANSPOSICAO": "Ponte sobre o Rio Santa Maria" }, "geometry": { "type": "Point", "coordinates": [ -49.748854484315508, -16.704086636321733 ] } },
{ "type": "Feature", "properties": { "Trecho": "Iaciara / Estiva", "SRE": "110EGO0050", "RODOVIA": "GO-110", "LINK": "DOR_PT_0020", "LAT": "-13.809047", "LONG": "-46.650219", "EXT_M": "44", "ORIGEM": "DOR", "TRANSPOSICAO": "Ponte sobre o Rio São Mateus" }, "geometry": { "type": "Point", "coordinates": [ -46.650219, -13.809047 ] } },
{ "type": "Feature", "properties": { "Trecho": "Trecho: Entr. GO-213 / Entr. GO-217 (Entr. Caldas Novas)", "SRE": null, "RODOVIA": "Acesso", "LINK": "DOR_PT_0042", "LAT": "-18.191373", "LONG": "-49.543273", "EXT_M": "40", "ORIGEM": "DOR", "TRANSPOSICAO": "Ponte sobre o Córrego Andorinhas" }, "geometry": { "type": "Point", "coordinates": [ -49.543273030501659, -18.191373325648453 ] } },
{ "type": "Feature", "properties": { "Trecho": "Entr. GO-164 (Nova Crixás) / Divisa MT(Landi)", "SRE": "449EGO0020", "RODOVIA": "GO-449", "LINK": "DOR_PT_0039", "LAT": "-15.258583", "LONG": "-50.612301", "EXT_M": "30", "ORIGEM": "DOR", "TRANSPOSICAO": "Ponte sobre o Córrego Bandeirantes (Córrego Pintado)" }, "geometry": { "type": "Point", "coordinates": [ -50.61230053254274, -15.258582924145312 ] } },
{ "type": "Feature", "properties": { "Trecho": "Entr. GO-164 (Nova Crixás) / Divisa MT(Landi)", "SRE": "347EGO0090", "RODOVIA": "GO-347", "LINK": "DOR_PT_0038", "LAT": "-14.689087", "LONG": "-50.181751", "EXT_M": "30", "ORIGEM": "DOR", "TRANSPOSICAO": "Ponte sobre o Córrego Bandeirantes (Córrego Pintado)" }, "geometry": { "type": "Point", "coordinates": [ -50.181751174041622, -14.689086711363696 ] } },
{ "type": "Feature", "properties": { "Trecho": "Perímetro urbano de Trindade", "SRE": "020EGO0010", "RODOVIA": "GO-020", "LINK": "DOR_PT_0005", "LAT": "-16.74086", "LONG": "-49.145671", "EXT_M": "73", "ORIGEM": "DOR", "TRANSPOSICAO": "Viaduto Portal da Fé" }, "geometry": { "type": "Point", "coordinates": [ -49.14567080708688, -16.740859618127331 ] } },
{ "type": "Feature", "properties": { "Trecho": "Trecho: Entr. GO-213 / Entr. GO-217 (Entr. Caldas Novas)", "SRE": "139EGO0080", "RODOVIA": "GO-139", "LINK": "DOR_PT_0023", "LAT": "-17.534791", "LONG": "-48.725858", "EXT_M": "40", "ORIGEM": "DOR", "TRANSPOSICAO": "Ponte sobre o Córrego Andorinhas" }, "geometry": { "type": "Point", "coordinates": [ -48.72585843, -17.53479098 ] } },
{ "type": "Feature", "properties": { "Trecho": null, "SRE": "184EGO0150", "RODOVIA": "GO-184", "LINK": "DOR_PT_0002", "LAT": "-17.527086", "LONG": "-49.456535", "EXT_M": null, "ORIGEM": "DOR", "TRANSPOSICAO": null }, "geometry": { "type": "Point", "coordinates": [ -49.456535339355469, -17.52708625793457 ] } },
{ "type": "Feature", "properties": { "Trecho": "Distrito Agroindustrial Norberto Teixeira (DIANOT)\n", "SRE": null, "RODOVIA": null, "LINK": "DOR_PT_0003", "LAT": "-16.818496", "LONG": "-49.201314", "EXT_M": null, "ORIGEM": "DOR", "TRANSPOSICAO": null }, "geometry": { "type": "Point", "coordinates": [ -49.201313622948113, -16.818495868510922 ] } },
{ "type": "Feature", "properties": { "Trecho": null, "SRE": "040EGO0080", "RODOVIA": "GO-040", "LINK": "DOR_PT_0007", "LAT": "-17.535276", "LONG": "-49.442282", "EXT_M": null, "ORIGEM": "DOR", "TRANSPOSICAO": null }, "geometry": { "type": "Point", "coordinates": [ -49.44228206388334, -17.535276076902939 ] } },
{ "type": "Feature", "properties": { "Trecho": null, "SRE": "070EGO0017", "RODOVIA": "GO-070", "LINK": "DOR_PT_0009", "LAT": "-16.579494", "LONG": "-49.388386", "EXT_M": null, "ORIGEM": "DOR", "TRANSPOSICAO": null }, "geometry": { "type": "Point", "coordinates": [ -49.388386033301948, -16.579493501516417 ] } },
{ "type": "Feature", "properties": { "Trecho": null, "SRE": "070EGO0017", "RODOVIA": "GO-070", "LINK": "DOR_PT_0010", "LAT": "-16.595935", "LONG": "-49.372991", "EXT_M": null, "ORIGEM": "DOR", "TRANSPOSICAO": null }, "geometry": { "type": "Point", "coordinates": [ -49.372991098091632, -16.595935367521307 ] } },
{ "type": "Feature", "properties": { "Trecho": null, "SRE": "070EGO0017", "RODOVIA": "GO-070", "LINK": "DOR_PT_0011", "LAT": "-16.621931", "LONG": "-49.355725", "EXT_M": null, "ORIGEM": "DOR", "TRANSPOSICAO": null }, "geometry": { "type": "Point", "coordinates": [ -49.355725191975111, -16.621930890115856 ] } },
{ "type": "Feature", "properties": { "Trecho": null, "SRE": "070EGO0017", "RODOVIA": "GO-070", "LINK": "DOR_PT_0012", "LAT": "-16.635934", "LONG": "-49.345188", "EXT_M": null, "ORIGEM": "DOR", "TRANSPOSICAO": null }, "geometry": { "type": "Point", "coordinates": [ -49.345188476152103, -16.635934041769389 ] } },
{ "type": "Feature", "properties": { "Trecho": null, "SRE": "070EGO0020", "RODOVIA": "GO-070", "LINK": "DOR_PT_0013", "LAT": "-16.509198", "LONG": "-49.42129", "EXT_M": null, "ORIGEM": "DOR", "TRANSPOSICAO": null }, "geometry": { "type": "Point", "coordinates": [ -49.421289874727158, -16.509197645390053 ] } },
{ "type": "Feature", "properties": { "Trecho": null, "SRE": "070EGO0020", "RODOVIA": "GO-070", "LINK": "DOR_PT_0014", "LAT": "-16.525011", "LONG": "-49.412052", "EXT_M": null, "ORIGEM": "DOR", "TRANSPOSICAO": null }, "geometry": { "type": "Point", "coordinates": [ -49.412052054400604, -16.525011130713214 ] } },
{ "type": "Feature", "properties": { "Trecho": null, "SRE": "070EGO0020", "RODOVIA": "GO-070", "LINK": "DOR_PT_0015", "LAT": "-16.543412", "LONG": "-49.403207", "EXT_M": null, "ORIGEM": "DOR", "TRANSPOSICAO": null }, "geometry": { "type": "Point", "coordinates": [ -49.403207237961709, -16.543411824095855 ] } },
{ "type": "Feature", "properties": { "Trecho": null, "SRE": "139EGO0080", "RODOVIA": "GO-139", "LINK": "DOR_PT_0022", "LAT": "-17.614068", "LONG": "-48.710755", "EXT_M": null, "ORIGEM": "DOR", "TRANSPOSICAO": null }, "geometry": { "type": "Point", "coordinates": [ -48.71075466196914, -17.614067747419924 ] } },
{ "type": "Feature", "properties": { "Trecho": null, "SRE": "154EGO0510", "RODOVIA": "GO-154", "LINK": "DOR_PT_0026", "LAT": "-13.379054", "LONG": "-49.608486", "EXT_M": null, "ORIGEM": "DOR", "TRANSPOSICAO": null }, "geometry": { "type": "Point", "coordinates": [ -49.608486108093786, -13.379053753204516 ] } },
{ "type": "Feature", "properties": { "Trecho": null, "SRE": "154EGO0510", "RODOVIA": "GO-154", "LINK": "DOR_PT_0025", "LAT": "-13.28116", "LONG": "-49.527276", "EXT_M": null, "ORIGEM": "DOR", "TRANSPOSICAO": null }, "geometry": { "type": "Point", "coordinates": [ -49.527276186251584, -13.281160337771135 ] } },
{ "type": "Feature", "properties": { "Trecho": null, "SRE": "174EGO0160", "RODOVIA": "GO-174", "LINK": "DOR_PT_0027", "LAT": "-17.736588", "LONG": "-50.995996", "EXT_M": null, "ORIGEM": "DOR", "TRANSPOSICAO": null }, "geometry": { "type": "Point", "coordinates": [ -50.995996491336946, -17.736587888342648 ] } },
{ "type": "Feature", "properties": { "Trecho": null, "SRE": "215EGO0020", "RODOVIA": "GO-215", "LINK": "DOR_PT_0029", "LAT": "-17.51626", "LONG": "-49.431906", "EXT_M": null, "ORIGEM": "DOR", "TRANSPOSICAO": null }, "geometry": { "type": "Point", "coordinates": [ -49.431905620373755, -17.516259652457439 ] } },
{ "type": "Feature", "properties": { "Trecho": null, "SRE": "221EGO0115", "RODOVIA": "GO-221", "LINK": "DOR_PT_0030", "LAT": "-16.632906", "LONG": "-52.431246", "EXT_M": null, "ORIGEM": "DOR", "TRANSPOSICAO": null }, "geometry": { "type": "Point", "coordinates": [ -52.431246178475142, -16.632906404228514 ] } },
{ "type": "Feature", "properties": { "Trecho": null, "SRE": "336EGO0090", "RODOVIA": "GO-336", "LINK": "DOR_PT_0034", "LAT": "-14.111488", "LONG": "-50.583744", "EXT_M": null, "ORIGEM": "DOR", "TRANSPOSICAO": null }, "geometry": { "type": "Point", "coordinates": [ -50.583744049072266, -14.111488342285156 ] } },
{ "type": "Feature", "properties": { "Trecho": null, "SRE": null, "RODOVIA": "Anel", "LINK": "DOR_PT_0043", "LAT": "-17.532688", "LONG": "-49.450239", "EXT_M": null, "ORIGEM": "DOR", "TRANSPOSICAO": null }, "geometry": { "type": "Point", "coordinates": [ -49.450238810379062, -17.532687760338863 ] } },
{ "type": "Feature", "properties": { "Trecho": null, "SRE": null, "RODOVIA": "Vicinal", "LINK": "DOR_PT_0044", "LAT": "-16.385166", "LONG": "-48.971458", "EXT_M": null, "ORIGEM": "DOR", "TRANSPOSICAO": null }, "geometry": { "type": "Point", "coordinates": [ -48.971458435058594, -16.385166168212891 ] } },
{ "type": "Feature", "properties": { "Trecho": null, "SRE": null, "RODOVIA": "Vicinal", "LINK": "DOR_PT_0045", "LAT": "-16.317741", "LONG": "-48.94157", "EXT_M": null, "ORIGEM": "DOR", "TRANSPOSICAO": null }, "geometry": { "type": "Point", "coordinates": [ -48.941570281982422, -16.317741394042969 ] } },
{ "type": "Feature", "properties": { "Trecho": null, "SRE": null, "RODOVIA": "Vicinal", "LINK": "DOR_PT_0046", "LAT": "-16.281066", "LONG": "-48.90096", "EXT_M": null, "ORIGEM": "DOR", "TRANSPOSICAO": null }, "geometry": { "type": "Point", "coordinates": [ -48.900960318321168, -16.281065762006225 ] } },
{ "type": "Feature", "properties": { "Trecho": "DAIU", "SRE": null, "RODOVIA": null, "LINK": "DOR_PT_0050", "LAT": "-14.538867", "LONG": "-49.164156", "EXT_M": null, "ORIGEM": "DOR", "TRANSPOSICAO": null }, "geometry": { "type": "Point", "coordinates": [ -49.164156026232341, -14.538867445435077 ] } },
{ "type": "Feature", "properties": { "Trecho": null, "SRE": "010EGO0015", "RODOVIA": "GO-010", "LINK": "DOR_PT_0004", "LAT": "-16.635274", "LONG": "-49.137076", "EXT_M": null, "ORIGEM": "DOR", "TRANSPOSICAO": null }, "geometry": { "type": "Point", "coordinates": [ -49.137076447963224, -16.635273643245483 ] } },
{ "type": "Feature", "properties": { "Trecho": null, "SRE": "213EGO0190", "RODOVIA": "GO-213", "LINK": "DOR_PT_0028", "LAT": "-17.723346", "LONG": "-48.855013", "EXT_M": null, "ORIGEM": "DOR", "TRANSPOSICAO": null }, "geometry": { "type": "Point", "coordinates": [ -48.855012896636865, -17.723346152642279 ] } },
{ "type": "Feature", "properties": { "Trecho": null, "SRE": "341EGO0010", "RODOVIA": "GO-341", "LINK": "DOR_PT_0036", "LAT": "-17.630958", "LONG": "-52.905126", "EXT_M": null, "ORIGEM": "DOR", "TRANSPOSICAO": null }, "geometry": { "type": "Point", "coordinates": [ -52.9051261497086, -17.630958095008737 ] } },
{ "type": "Feature", "properties": { "Trecho": null, "SRE": "341EGO0150", "RODOVIA": "GO-341", "LINK": "DOR_PT_0037", "LAT": "-17.272237", "LONG": "-52.075277", "EXT_M": null, "ORIGEM": "DOR", "TRANSPOSICAO": null }, "geometry": { "type": "Point", "coordinates": [ -52.075276912567375, -17.272237211646516 ] } },
{ "type": "Feature", "properties": { "Trecho": null, "SRE": "040EGO0070", "RODOVIA": "GO-040", "LINK": "DOR_PT_0006", "LAT": "-17.546008", "LONG": "-49.474149", "EXT_M": null, "ORIGEM": "DOR", "TRANSPOSICAO": null }, "geometry": { "type": "Point", "coordinates": [ -49.474149348638583, -17.546008453409449 ] } },
{ "type": "Feature", "properties": { "Trecho": null, "SRE": "139EGO0010", "RODOVIA": "GO-139", "LINK": "DOR_PT_0021", "LAT": "-18.324501", "LONG": "-48.563925", "EXT_M": null, "ORIGEM": "DOR", "TRANSPOSICAO": "QUINCAS" }, "geometry": { "type": "Point", "coordinates": [ -48.563924890294828, -18.324500932357143 ] } },
{ "type": "Feature", "properties": { "Trecho": null, "SRE": "174EGO0195", "RODOVIA": "GO-174", "LINK": "FP_0061_OAE_01", "LAT": "-17.484041", "LONG": "-51.139413", "EXT_M": "20", "ORIGEM": "FUNDEINFRA", "TRANSPOSICAO": "Ribeirão Porteiras" }, "geometry": { "type": "Point", "coordinates": [ -51.139412735637308, -17.484040907364744 ] } },
{ "type": "Feature", "properties": { "Trecho": null, "SRE": "139EGO0088", "RODOVIA": "GO-139", "LINK": "FO_0046_OAE_01", "LAT": "-17.535396", "LONG": "-48.725643", "EXT_M": "40", "ORIGEM": "FUNDEINFRA", "TRANSPOSICAO": "Córrego Andorinhas" }, "geometry": { "type": "Point", "coordinates": [ -48.725643148859994, -17.535396161604432 ] } },
{ "type": "Feature", "properties": { "Trecho": null, "SRE": "542EGO0020", "RODOVIA": "GO-542", "LINK": "FO_0043_OAE_01", "LAT": "-16.770752", "LONG": "-52.826321", "EXT_M": "70", "ORIGEM": "FUNDEINFRA", "TRANSPOSICAO": "Rio Diamantino" }, "geometry": { "type": "Point", "coordinates": [ -52.826320833310142, -16.770751951284407 ] } },
{ "type": "Feature", "properties": { "Trecho": null, "SRE": "154EGO0505", "RODOVIA": "GO-154", "LINK": "FO_0028_OAE_01", "LAT": "-13.493733", "LONG": "-49.645143", "EXT_M": "20", "ORIGEM": "FUNDEINFRA", "TRANSPOSICAO": "Rio Lageado" }, "geometry": { "type": "Point", "coordinates": [ -49.645142984407627, -13.493732894000885 ] } },
{ "type": "Feature", "properties": { "Trecho": null, "SRE": "338EGO0114", "RODOVIA": "GO-338", "LINK": "FO_0037_OAE_01", "LAT": "-14.891912", "LONG": "-49.277016", "EXT_M": "280", "ORIGEM": "FUNDEINFRA", "TRANSPOSICAO": "Rio das Almas" }, "geometry": { "type": "Point", "coordinates": [ -49.277016424733489, -14.891912153171139 ] } },
{ "type": "Feature", "properties": { "Trecho": null, "SRE": "154EGO0505", "RODOVIA": "GO-154", "LINK": "FO_0028_OAE_02", "LAT": "-13.27246", "LONG": "-49.524452", "EXT_M": "30", "ORIGEM": "FUNDEINFRA", "TRANSPOSICAO": "Rio Pintado" }, "geometry": { "type": "Point", "coordinates": [ -49.524452224585325, -13.272459692303178 ] } },
{ "type": "Feature", "properties": { "Trecho": null, "SRE": "460EGO0025", "RODOVIA": "GO-460", "LINK": "FO_0025_OAE_01", "LAT": "-15.362829", "LONG": "-49.865214", "EXT_M": "50", "ORIGEM": "FUNDEINFRA", "TRANSPOSICAO": "Ribeirão Olhos d'água" }, "geometry": { "type": "Point", "coordinates": [ -49.865213851010274, -15.36282929521389 ] } },
{ "type": "Feature", "properties": { "Trecho": null, "SRE": "210EGO0050", "RODOVIA": "GO-210", "LINK": "FP_0065_OAE_01", "LAT": "-18.107713", "LONG": "-47.677488", "EXT_M": "500", "ORIGEM": "FUNDEINFRA", "TRANSPOSICAO": "Rio São Marcos" }, "geometry": { "type": "Point", "coordinates": [ -47.677487744945715, -18.107713090469723 ] } },
{ "type": "Feature", "properties": { "Trecho": null, "SRE": "174EGO0030", "RODOVIA": "GO-174", "LINK": "FO_0044_OAE_01", "LAT": "-19.105964", "LONG": "-51.123378", "EXT_M": "130", "ORIGEM": "FUNDEINFRA", "TRANSPOSICAO": "Rio Corrente" }, "geometry": { "type": "Point", "coordinates": [ -51.123377670426237, -19.105964254053916 ] } },
{ "type": "Feature", "properties": { "Trecho": null, "SRE": "174EGO0195", "RODOVIA": "GO-174", "LINK": "FP_0053_OAE_01", "LAT": "-17.730896", "LONG": "-50.972672", "EXT_M": "80", "ORIGEM": "FUNDEINFRA", "TRANSPOSICAO": "Viaduto (OAE) sobre GO-210" }, "geometry": { "type": "Point", "coordinates": [ -50.972671959414249, -17.730895773441802 ] } },
{ "type": "Feature", "properties": { "Trecho": null, "SRE": "174EGO0195", "RODOVIA": "GO-174", "LINK": "FP_0057_OAE_01", "LAT": "-17.67674", "LONG": "-51.039538", "EXT_M": "40", "ORIGEM": "FUNDEINFRA", "TRANSPOSICAO": "Rio Verdinho" }, "geometry": { "type": "Point", "coordinates": [ -51.039538002011994, -17.676739760350266 ] } },
{ "type": "Feature", "properties": { "Trecho": null, "SRE": "174EGO0195", "RODOVIA": "GO-174", "LINK": "FP_0058_OAE_01", "LAT": "-17.624267", "LONG": "-51.061694", "EXT_M": "30", "ORIGEM": "FUNDEINFRA", "TRANSPOSICAO": "Ribeirão Não Identificado" }, "geometry": { "type": "Point", "coordinates": [ -51.061694491255281, -17.624266563724682 ] } },
{ "type": "Feature", "properties": { "Trecho": null, "SRE": "174EGO0195", "RODOVIA": "GO-174", "LINK": "FP_0059_OAE_01", "LAT": "-17.583248", "LONG": "-51.089735", "EXT_M": "30", "ORIGEM": "FUNDEINFRA", "TRANSPOSICAO": "Ribeirão Monte Alegre" }, "geometry": { "type": "Point", "coordinates": [ -51.089734827864298, -17.583247749808823 ] } },
{ "type": "Feature", "properties": { "Trecho": null, "SRE": "174EGO0195", "RODOVIA": "GO-174", "LINK": "FP_0060_OAE_01", "LAT": "-17.522918", "LONG": "-51.11515", "EXT_M": "30", "ORIGEM": "FUNDEINFRA", "TRANSPOSICAO": "Ribeirão Pindaíba" }, "geometry": { "type": "Point", "coordinates": [ -51.115150294361229, -17.522918021966969 ] } },
{ "type": "Feature", "properties": { "Trecho": null, "SRE": "174EGO0210", "RODOVIA": "GO-174", "LINK": "FP_0062_OAE_01", "LAT": "-17.438511", "LONG": "-51.174125", "EXT_M": "40", "ORIGEM": "FUNDEINFRA", "TRANSPOSICAO": "Rio Montividiu" }, "geometry": { "type": "Point", "coordinates": [ -51.174124826502428, -17.438510534947017 ] } },
{ "type": "Feature", "properties": { "Trecho": null, "SRE": "139EGO0080", "RODOVIA": "GO-139", "LINK": "FO_0046_OAE_02", "LAT": "-17.699944", "LONG": "-48.707953", "EXT_M": "80", "ORIGEM": "FUNDEINFRA", "TRANSPOSICAO": "Viaduto (OAE) sobre GO-213" }, "geometry": { "type": "Point", "coordinates": [ -48.707952795169007, -17.699944267386865 ] } },
{ "type": "Feature", "properties": { "Trecho": "Bonópolis", "SRE": null, "RODOVIA": null, "LINK": "DOC_0010", "LAT": "-13.651549", "LONG": "-49.832143", "EXT_M": null, "ORIGEM": "DOC", "TRANSPOSICAO": null }, "geometry": { "type": "Point", "coordinates": [ -49.832143059079719, -13.651549443439364 ] } },
{ "type": "Feature", "properties": { "Trecho": "Águas Lindas de Goiás", "SRE": null, "RODOVIA": null, "LINK": "DOC_0002", "LAT": "-15.735326", "LONG": "-48.280427", "EXT_M": null, "ORIGEM": "DOC", "TRANSPOSICAO": null }, "geometry": { "type": "Point", "coordinates": [ -48.280427107361582, -15.735326077709432 ] } },
{ "type": "Feature", "properties": { "Trecho": "Novo Gama", "SRE": null, "RODOVIA": null, "LINK": "DOC_0039", "LAT": "-16.080897", "LONG": "-48.06463", "EXT_M": null, "ORIGEM": "DOC", "TRANSPOSICAO": null }, "geometry": { "type": "Point", "coordinates": [ -48.064629844147767, -16.080896788528854 ] } },
{ "type": "Feature", "properties": { "Trecho": "Abadia de Goiás", "SRE": null, "RODOVIA": null, "LINK": "DOC_0001", "LAT": "-16.756302", "LONG": "-49.43931", "EXT_M": null, "ORIGEM": "DOC", "TRANSPOSICAO": null }, "geometry": { "type": "Point", "coordinates": [ -49.439310053075445, -16.756301545095415 ] } },
{ "type": "Feature", "properties": { "Trecho": "Alto Paraíso de Goiás", "SRE": null, "RODOVIA": null, "LINK": "DOC_0003", "LAT": "-14.136303", "LONG": "-47.521791", "EXT_M": null, "ORIGEM": "DOC", "TRANSPOSICAO": null }, "geometry": { "type": "Point", "coordinates": [ -47.521791121289368, -14.136303387619858 ] } },
{ "type": "Feature", "properties": { "Trecho": "Americano do Brasil", "SRE": null, "RODOVIA": null, "LINK": "DOC_0004", "LAT": "-16.254342", "LONG": "-49.982643", "EXT_M": null, "ORIGEM": "DOC", "TRANSPOSICAO": null }, "geometry": { "type": "Point", "coordinates": [ -49.982642723249946, -16.254342197384752 ] } },
{ "type": "Feature", "properties": { "Trecho": "Anápolis", "SRE": null, "RODOVIA": null, "LINK": "DOC_0005", "LAT": "-16.329492", "LONG": "-48.949646", "EXT_M": null, "ORIGEM": "DOC", "TRANSPOSICAO": null }, "geometry": { "type": "Point", "coordinates": [ -48.949646169058518, -16.329491615668175 ] } },
{ "type": "Feature", "properties": { "Trecho": "Aparecida de Goiânia", "SRE": null, "RODOVIA": null, "LINK": "DOC_0006", "LAT": "-16.820746", "LONG": "-49.241124", "EXT_M": null, "ORIGEM": "DOC", "TRANSPOSICAO": null }, "geometry": { "type": "Point", "coordinates": [ -49.241123554089619, -16.820745988655403 ] } },
{ "type": "Feature", "properties": { "Trecho": "Araçu", "SRE": null, "RODOVIA": null, "LINK": "DOC_0007", "LAT": "-16.358", "LONG": "-49.68372", "EXT_M": null, "ORIGEM": "DOC", "TRANSPOSICAO": null }, "geometry": { "type": "Point", "coordinates": [ -49.683719744628526, -16.35800033510067 ] } },
{ "type": "Feature", "properties": { "Trecho": "Araguapaz", "SRE": null, "RODOVIA": null, "LINK": "DOC_0008", "LAT": "-15.092984", "LONG": "-50.621213", "EXT_M": null, "ORIGEM": "DOC", "TRANSPOSICAO": null }, "geometry": { "type": "Point", "coordinates": [ -50.621212642448896, -15.09298411931773 ] } },
{ "type": "Feature", "properties": { "Trecho": "Avelinópolis", "SRE": null, "RODOVIA": null, "LINK": "DOC_0009", "LAT": "-16.463099", "LONG": "-49.753487", "EXT_M": null, "ORIGEM": "DOC", "TRANSPOSICAO": null }, "geometry": { "type": "Point", "coordinates": [ -49.753487173808956, -16.463099000161616 ] } },
{ "type": "Feature", "properties": { "Trecho": "Caçu", "SRE": null, "RODOVIA": null, "LINK": "DOC_0011", "LAT": "-18.572545", "LONG": "-51.133303", "EXT_M": null, "ORIGEM": "DOC", "TRANSPOSICAO": null }, "geometry": { "type": "Point", "coordinates": [ -51.13330278705903, -18.572544827851413 ] } },
{ "type": "Feature", "properties": { "Trecho": "Campos Belos", "SRE": null, "RODOVIA": null, "LINK": "DOC_0012", "LAT": "-13.035724", "LONG": "-46.762714", "EXT_M": null, "ORIGEM": "DOC", "TRANSPOSICAO": null }, "geometry": { "type": "Point", "coordinates": [ -46.762713631006648, -13.03572370580217 ] } },
{ "type": "Feature", "properties": { "Trecho": "Campos Verdes", "SRE": null, "RODOVIA": null, "LINK": "DOC_0013", "LAT": "-14.268194", "LONG": "-49.656599", "EXT_M": null, "ORIGEM": "DOC", "TRANSPOSICAO": null }, "geometry": { "type": "Point", "coordinates": [ -49.656598754167057, -14.268194380225093 ] } },
{ "type": "Feature", "properties": { "Trecho": "Catalão", "SRE": null, "RODOVIA": null, "LINK": "DOC_0014", "LAT": "-18.170429", "LONG": "-47.943177", "EXT_M": null, "ORIGEM": "DOC", "TRANSPOSICAO": null }, "geometry": { "type": "Point", "coordinates": [ -47.943176635518995, -18.170429410522672 ] } },
{ "type": "Feature", "properties": { "Trecho": "Cavalcante", "SRE": null, "RODOVIA": null, "LINK": "DOC_0015", "LAT": "-13.797055", "LONG": "-47.459902", "EXT_M": null, "ORIGEM": "DOC", "TRANSPOSICAO": null }, "geometry": { "type": "Point", "coordinates": [ -47.459902359959436, -13.797054941121734 ] } },
{ "type": "Feature", "properties": { "Trecho": "Cristianópolis", "SRE": null, "RODOVIA": null, "LINK": "DOC_0016", "LAT": "-17.201989", "LONG": "-48.709806", "EXT_M": null, "ORIGEM": "DOC", "TRANSPOSICAO": null }, "geometry": { "type": "Point", "coordinates": [ -48.70980615914069, -17.201988682815347 ] } },
{ "type": "Feature", "properties": { "Trecho": "Damianópolis", "SRE": null, "RODOVIA": null, "LINK": "DOC_0017", "LAT": "-14.559951", "LONG": "-46.175169", "EXT_M": null, "ORIGEM": "DOC", "TRANSPOSICAO": null }, "geometry": { "type": "Point", "coordinates": [ -46.175168505795469, -14.559950601162146 ] } },
{ "type": "Feature", "properties": { "Trecho": "Davinópolis", "SRE": null, "RODOVIA": null, "LINK": "DOC_0018", "LAT": "-18.151832", "LONG": "-47.559466", "EXT_M": null, "ORIGEM": "DOC", "TRANSPOSICAO": null }, "geometry": { "type": "Point", "coordinates": [ -47.559466339396415, -18.151832175745508 ] } },
{ "type": "Feature", "properties": { "Trecho": "Firminópolis", "SRE": null, "RODOVIA": null, "LINK": "DOC_0019", "LAT": "-16.575705", "LONG": "-50.299718", "EXT_M": null, "ORIGEM": "DOC", "TRANSPOSICAO": null }, "geometry": { "type": "Point", "coordinates": [ -50.299717966384158, -16.575705375273888 ] } },
{ "type": "Feature", "properties": { "Trecho": "Formosa", "SRE": null, "RODOVIA": null, "LINK": "DOC_0020", "LAT": "-15.542918", "LONG": "-47.337542", "EXT_M": null, "ORIGEM": "DOC", "TRANSPOSICAO": null }, "geometry": { "type": "Point", "coordinates": [ -47.337542111946064, -15.542918251718886 ] } },
{ "type": "Feature", "properties": { "Trecho": "Formoso", "SRE": null, "RODOVIA": null, "LINK": "DOC_0021", "LAT": "-13.653775", "LONG": "-48.878132", "EXT_M": null, "ORIGEM": "DOC", "TRANSPOSICAO": null }, "geometry": { "type": "Point", "coordinates": [ -48.878132252571874, -13.653774623029909 ] } },
{ "type": "Feature", "properties": { "Trecho": "Goianésia", "SRE": null, "RODOVIA": null, "LINK": "DOC_0022", "LAT": "-15.326656", "LONG": "-49.117034", "EXT_M": null, "ORIGEM": "DOC", "TRANSPOSICAO": null }, "geometry": { "type": "Point", "coordinates": [ -49.117033820057934, -15.326655512164258 ] } },
{ "type": "Feature", "properties": { "Trecho": "Goiânia", "SRE": null, "RODOVIA": null, "LINK": "DOC_0023", "LAT": "-16.67467", "LONG": "-49.258271", "EXT_M": null, "ORIGEM": "DOC", "TRANSPOSICAO": null }, "geometry": { "type": "Point", "coordinates": [ -49.25827140612018, -16.674670410797152 ] } },
{ "type": "Feature", "properties": { "Trecho": "Goiás", "SRE": null, "RODOVIA": null, "LINK": "DOC_0024", "LAT": "-15.94804", "LONG": "-50.130661", "EXT_M": null, "ORIGEM": "DOC", "TRANSPOSICAO": null }, "geometry": { "type": "Point", "coordinates": [ -50.13066088015659, -15.948039737816734 ] } },
{ "type": "Feature", "properties": { "Trecho": "Ipameri", "SRE": null, "RODOVIA": null, "LINK": "DOC_0025", "LAT": "-17.719263", "LONG": "-48.156319", "EXT_M": null, "ORIGEM": "DOC", "TRANSPOSICAO": null }, "geometry": { "type": "Point", "coordinates": [ -48.15631895167536, -17.719263172772965 ] } },
{ "type": "Feature", "properties": { "Trecho": "Iporá", "SRE": null, "RODOVIA": null, "LINK": "DOC_0026", "LAT": "-16.436094", "LONG": "-51.111917", "EXT_M": null, "ORIGEM": "DOC", "TRANSPOSICAO": null }, "geometry": { "type": "Point", "coordinates": [ -51.111917285529366, -16.436094364930618 ] } },
{ "type": "Feature", "properties": { "Trecho": "Itaguaru", "SRE": null, "RODOVIA": null, "LINK": "DOC_0027", "LAT": "-15.76496", "LONG": "-49.631104", "EXT_M": null, "ORIGEM": "DOC", "TRANSPOSICAO": null }, "geometry": { "type": "Point", "coordinates": [ -49.631103511665685, -15.764960285642658 ] } },
{ "type": "Feature", "properties": { "Trecho": "Itumbiara", "SRE": null, "RODOVIA": null, "LINK": "DOC_0028", "LAT": "-18.407254", "LONG": "-49.219694", "EXT_M": null, "ORIGEM": "DOC", "TRANSPOSICAO": null }, "geometry": { "type": "Point", "coordinates": [ -49.219694151799274, -18.407254210003959 ] } },
{ "type": "Feature", "properties": { "Trecho": "Jaraguá", "SRE": null, "RODOVIA": null, "LINK": "DOC_0029", "LAT": "-15.75244", "LONG": "-49.331336", "EXT_M": null, "ORIGEM": "DOC", "TRANSPOSICAO": null }, "geometry": { "type": "Point", "coordinates": [ -49.331336060655097, -15.752440156956961 ] } },
{ "type": "Feature", "properties": { "Trecho": "Leopoldo de Bulhões", "SRE": null, "RODOVIA": null, "LINK": "DOC_0030", "LAT": "-16.630889", "LONG": "-48.736481", "EXT_M": null, "ORIGEM": "DOC", "TRANSPOSICAO": null }, "geometry": { "type": "Point", "coordinates": [ -48.736480519314576, -16.630888529361808 ] } },
{ "type": "Feature", "properties": { "Trecho": "Mimoso de Goiás", "SRE": null, "RODOVIA": null, "LINK": "DOC_0031", "LAT": "-15.058697", "LONG": "-48.161407", "EXT_M": null, "ORIGEM": "DOC", "TRANSPOSICAO": null }, "geometry": { "type": "Point", "coordinates": [ -48.161407404476854, -15.058697298690175 ] } },
{ "type": "Feature", "properties": { "Trecho": "Minaçu", "SRE": null, "RODOVIA": null, "LINK": "DOC_0032", "LAT": "-13.530616", "LONG": "-48.214546", "EXT_M": null, "ORIGEM": "DOC", "TRANSPOSICAO": null }, "geometry": { "type": "Point", "coordinates": [ -48.21454610121166, -13.530615610553747 ] } },
{ "type": "Feature", "properties": { "Trecho": "Mineiros", "SRE": null, "RODOVIA": null, "LINK": "DOC_0033", "LAT": "-17.562583", "LONG": "-52.548368", "EXT_M": null, "ORIGEM": "DOC", "TRANSPOSICAO": null }, "geometry": { "type": "Point", "coordinates": [ -52.548367759038506, -17.562583432510706 ] } },
{ "type": "Feature", "properties": { "Trecho": "Morrinhos", "SRE": null, "RODOVIA": null, "LINK": "DOC_0034", "LAT": "-17.736089", "LONG": "-49.111416", "EXT_M": null, "ORIGEM": "DOC", "TRANSPOSICAO": null }, "geometry": { "type": "Point", "coordinates": [ -49.111416466168109, -17.73608857315778 ] } },
{ "type": "Feature", "properties": { "Trecho": "Mozarlândia", "SRE": null, "RODOVIA": null, "LINK": "DOC_0035", "LAT": "-14.747329", "LONG": "-50.570982", "EXT_M": null, "ORIGEM": "DOC", "TRANSPOSICAO": null }, "geometry": { "type": "Point", "coordinates": [ -50.570981556492306, -14.747329492039817 ] } },
{ "type": "Feature", "properties": { "Trecho": "Mundo Novo", "SRE": null, "RODOVIA": null, "LINK": "DOC_0036", "LAT": "-13.77366", "LONG": "-50.27873", "EXT_M": null, "ORIGEM": "DOC", "TRANSPOSICAO": null }, "geometry": { "type": "Point", "coordinates": [ -50.278729585322232, -13.773660272929311 ] } },
{ "type": "Feature", "properties": { "Trecho": "Niquelândia", "SRE": null, "RODOVIA": null, "LINK": "DOC_0037", "LAT": "-14.463783", "LONG": "-48.464297", "EXT_M": null, "ORIGEM": "DOC", "TRANSPOSICAO": null }, "geometry": { "type": "Point", "coordinates": [ -48.464297068168946, -14.463782948902757 ] } },
{ "type": "Feature", "properties": { "Trecho": "Nova América", "SRE": null, "RODOVIA": null, "LINK": "DOC_0038", "LAT": "-15.020183", "LONG": "-49.896869", "EXT_M": null, "ORIGEM": "DOC", "TRANSPOSICAO": null }, "geometry": { "type": "Point", "coordinates": [ -49.896868870208465, -15.020183125469421 ] } },
{ "type": "Feature", "properties": { "Trecho": "Padre Bernardo", "SRE": null, "RODOVIA": null, "LINK": "DOC_0040", "LAT": "-15.170172", "LONG": "-48.284353", "EXT_M": null, "ORIGEM": "DOC", "TRANSPOSICAO": null }, "geometry": { "type": "Point", "coordinates": [ -48.284353483950461, -15.170171655397723 ] } },
{ "type": "Feature", "properties": { "Trecho": "Pirenópolis", "SRE": null, "RODOVIA": null, "LINK": "DOC_0041", "LAT": "-15.855547", "LONG": "-48.967135", "EXT_M": null, "ORIGEM": "DOC", "TRANSPOSICAO": null }, "geometry": { "type": "Point", "coordinates": [ -48.967135362786074, -15.855547068581565 ] } },
{ "type": "Feature", "properties": { "Trecho": "Porangatu", "SRE": null, "RODOVIA": null, "LINK": "DOC_0042", "LAT": "-13.441026", "LONG": "-49.146014", "EXT_M": null, "ORIGEM": "DOC", "TRANSPOSICAO": null }, "geometry": { "type": "Point", "coordinates": [ -49.146014416322267, -13.441025518102196 ] } },
{ "type": "Feature", "properties": { "Trecho": "Quirinópolis", "SRE": null, "RODOVIA": null, "LINK": "DOC_0043", "LAT": "-18.451162", "LONG": "-50.448431", "EXT_M": null, "ORIGEM": "DOC", "TRANSPOSICAO": null }, "geometry": { "type": "Point", "coordinates": [ -50.448430988867479, -18.451161749458162 ] } },
{ "type": "Feature", "properties": { "Trecho": "Rio Verde", "SRE": null, "RODOVIA": null, "LINK": "DOC_0044", "LAT": "-17.789767", "LONG": "-50.9205", "EXT_M": null, "ORIGEM": "DOC", "TRANSPOSICAO": null }, "geometry": { "type": "Point", "coordinates": [ -50.920500386102098, -17.789766843831522 ] } },
{ "type": "Feature", "properties": { "Trecho": "Santa Bárbara de Goiás", "SRE": null, "RODOVIA": null, "LINK": "DOC_0045", "LAT": "-16.572469", "LONG": "-49.693604", "EXT_M": null, "ORIGEM": "DOC", "TRANSPOSICAO": null }, "geometry": { "type": "Point", "coordinates": [ -49.693603656189417, -16.572469003198638 ] } },
{ "type": "Feature", "properties": { "Trecho": "Santa Tereza de Goiás", "SRE": null, "RODOVIA": null, "LINK": "DOC_0047", "LAT": "-13.713454", "LONG": "-49.016408", "EXT_M": null, "ORIGEM": "DOC", "TRANSPOSICAO": null }, "geometry": { "type": "Point", "coordinates": [ -49.016407600359287, -13.713454246575559 ] } },
{ "type": "Feature", "properties": { "Trecho": "Santa Terezinha de Goiás", "SRE": null, "RODOVIA": null, "LINK": "DOC_0048", "LAT": "-14.438176", "LONG": "-49.706483", "EXT_M": null, "ORIGEM": "DOC", "TRANSPOSICAO": null }, "geometry": { "type": "Point", "coordinates": [ -49.706483124115763, -14.438176013585638 ] } },
{ "type": "Feature", "properties": { "Trecho": "São Luiz de Montes Belos", "SRE": null, "RODOVIA": null, "LINK": "DOC_0050", "LAT": "-16.522836", "LONG": "-50.374007", "EXT_M": null, "ORIGEM": "DOC", "TRANSPOSICAO": null }, "geometry": { "type": "Point", "coordinates": [ -50.374007384398872, -16.52283598136432 ] } },
{ "type": "Feature", "properties": { "Trecho": "São Luiz do Norte", "SRE": null, "RODOVIA": null, "LINK": "DOC_0051", "LAT": "-14.863049", "LONG": "-49.326304", "EXT_M": null, "ORIGEM": "DOC", "TRANSPOSICAO": null }, "geometry": { "type": "Point", "coordinates": [ -49.32630432092845, -14.863049118431045 ] } },
{ "type": "Feature", "properties": { "Trecho": "São Miguel do Araguaia", "SRE": null, "RODOVIA": null, "LINK": "DOC_0052", "LAT": "-13.273313", "LONG": "-50.164384", "EXT_M": null, "ORIGEM": "DOC", "TRANSPOSICAO": null }, "geometry": { "type": "Point", "coordinates": [ -50.164383559782749, -13.273313011776549 ] } },
{ "type": "Feature", "properties": { "Trecho": "São Simão", "SRE": null, "RODOVIA": null, "LINK": "DOC_0053", "LAT": "-19.005127", "LONG": "-50.554599", "EXT_M": null, "ORIGEM": "DOC", "TRANSPOSICAO": null }, "geometry": { "type": "Point", "coordinates": [ -50.554598615224492, -19.005126724916924 ] } },
{ "type": "Feature", "properties": { "Trecho": "Teresina de Goiás", "SRE": null, "RODOVIA": null, "LINK": "DOC_0054", "LAT": "-13.777056", "LONG": "-47.267234", "EXT_M": null, "ORIGEM": "DOC", "TRANSPOSICAO": null }, "geometry": { "type": "Point", "coordinates": [ -47.267234051393224, -13.777055766402693 ] } },
{ "type": "Feature", "properties": { "Trecho": "Trindade", "SRE": null, "RODOVIA": null, "LINK": "DOC_0055", "LAT": "-16.654891", "LONG": "-49.487321", "EXT_M": null, "ORIGEM": "DOC", "TRANSPOSICAO": null }, "geometry": { "type": "Point", "coordinates": [ -49.487321472161533, -16.654890987619634 ] } },
{ "type": "Feature", "properties": { "Trecho": "Uruaçu", "SRE": null, "RODOVIA": null, "LINK": "DOC_0056", "LAT": "-14.522067", "LONG": "-49.156744", "EXT_M": null, "ORIGEM": "DOC", "TRANSPOSICAO": null }, "geometry": { "type": "Point", "coordinates": [ -49.156744282976547, -14.52206741289354 ] } },
{ "type": "Feature", "properties": { "Trecho": "Vianópolis", "SRE": null, "RODOVIA": null, "LINK": "DOC_0057", "LAT": "-16.751196", "LONG": "-48.518093", "EXT_M": null, "ORIGEM": "DOC", "TRANSPOSICAO": null }, "geometry": { "type": "Point", "coordinates": [ -48.518093294349256, -16.751196055535832 ] } },
{ "type": "Feature", "properties": { "Trecho": "Santa Tereza", "SRE": null, "RODOVIA": null, "LINK": "DOC_0046", "LAT": "-16.514924", "LONG": "-49.120694", "EXT_M": null, "ORIGEM": "DOC", "TRANSPOSICAO": null }, "geometry": { "type": "Point", "coordinates": [ -49.120693708154135, -16.514923654347577 ] } },
{ "type": "Feature", "properties": { "Trecho": "Campos Verdes", "SRE": null, "RODOVIA": null, "LINK": "DOC_0013", "LAT": "-16.093128", "LONG": "-51.741721", "EXT_M": null, "ORIGEM": "DOC", "TRANSPOSICAO": null }, "geometry": { "type": "Point", "coordinates": [ -51.741720972722362, -16.093127802062309 ] } },
{ "type": "Feature", "properties": { "Trecho": null, "SRE": null, "RODOVIA": null, "LINK": "DMA_DRE_0001", "LAT": "-16.658455", "LONG": "-49.329706", "EXT_M": null, "ORIGEM": "DMA", "TRANSPOSICAO": null }, "geometry": { "type": "Point", "coordinates": [ -49.329705691084186, -16.658455248129776 ] } },
{ "type": "Feature", "properties": { "Trecho": null, "SRE": null, "RODOVIA": null, "LINK": "DMA_DRE_0002", "LAT": "-16.655949", "LONG": "-49.329745", "EXT_M": null, "ORIGEM": "DMA", "TRANSPOSICAO": null }, "geometry": { "type": "Point", "coordinates": [ -49.329744680223449, -16.655948713335732 ] } },
{ "type": "Feature", "properties": { "Trecho": null, "SRE": null, "RODOVIA": null, "LINK": "DMA_DRE_0003", "LAT": "-16.634383", "LONG": "-49.346579", "EXT_M": null, "ORIGEM": "DMA", "TRANSPOSICAO": null }, "geometry": { "type": "Point", "coordinates": [ -49.346579234753314, -16.634382687960606 ] } },
{ "type": "Feature", "properties": { "Trecho": null, "SRE": null, "RODOVIA": null, "LINK": "DMA_DRE_0004", "LAT": "-16.584249", "LONG": "-49.384736", "EXT_M": null, "ORIGEM": "DMA", "TRANSPOSICAO": null }, "geometry": { "type": "Point", "coordinates": [ -49.384735596279597, -16.584249468510812 ] } },
{ "type": "Feature", "properties": { "Trecho": null, "SRE": null, "RODOVIA": null, "LINK": "DMA_DRE_0005", "LAT": "-16.563581", "LONG": "-49.40074", "EXT_M": null, "ORIGEM": "DMA", "TRANSPOSICAO": null }, "geometry": { "type": "Point", "coordinates": [ -49.400740070142, -16.563581439350749 ] } },
{ "type": "Feature", "properties": { "Trecho": null, "SRE": null, "RODOVIA": null, "LINK": "DMA_DRE_0006", "LAT": "-16.488594", "LONG": "-49.426019", "EXT_M": null, "ORIGEM": "DMA", "TRANSPOSICAO": null }, "geometry": { "type": "Point", "coordinates": [ -49.426018659653167, -16.488593589962321 ] } },
{ "type": "Feature", "properties": { "Trecho": null, "SRE": null, "RODOVIA": null, "LINK": "DMA_DRE_0007", "LAT": "-16.473623", "LONG": "-49.435478", "EXT_M": null, "ORIGEM": "DMA", "TRANSPOSICAO": null }, "geometry": { "type": "Point", "coordinates": [ -49.435478257614882, -16.473622517557917 ] } },
{ "type": "Feature", "properties": { "Trecho": null, "SRE": null, "RODOVIA": null, "LINK": "DMA_DRE_0008", "LAT": "-16.459234", "LONG": "-49.444646", "EXT_M": null, "ORIGEM": "DMA", "TRANSPOSICAO": null }, "geometry": { "type": "Point", "coordinates": [ -49.44464638337049, -16.459234389565719 ] } },
{ "type": "Feature", "properties": { "Trecho": null, "SRE": null, "RODOVIA": null, "LINK": "DMA_DRE_0009", "LAT": "-16.419329", "LONG": "-49.470031", "EXT_M": null, "ORIGEM": "DMA", "TRANSPOSICAO": null }, "geometry": { "type": "Point", "coordinates": [ -49.470030962774771, -16.419329194802831 ] } },
{ "type": "Feature", "properties": { "Trecho": null, "SRE": null, "RODOVIA": null, "LINK": "DMA_DRE_0010", "LAT": "-16.406584", "LONG": "-49.478669", "EXT_M": null, "ORIGEM": "DMA", "TRANSPOSICAO": null }, "geometry": { "type": "Point", "coordinates": [ -49.478669139064742, -16.406583910154129 ] } },
{ "type": "Feature", "properties": { "Trecho": null, "SRE": null, "RODOVIA": null, "LINK": "DMA_DRE_0011", "LAT": "-16.384697", "LONG": "-49.497986", "EXT_M": null, "ORIGEM": "DMA", "TRANSPOSICAO": null }, "geometry": { "type": "Point", "coordinates": [ -49.497985797087409, -16.384696997223095 ] } },
{ "type": "Feature", "properties": { "Trecho": null, "SRE": null, "RODOVIA": null, "LINK": "DMA_DRE_0012", "LAT": "-16.332682", "LONG": "-49.517673", "EXT_M": null, "ORIGEM": "DMA", "TRANSPOSICAO": null }, "geometry": { "type": "Point", "coordinates": [ -49.517673419736028, -16.332682457170279 ] } },
{ "type": "Feature", "properties": { "Trecho": null, "SRE": null, "RODOVIA": null, "LINK": "DMA_DRE_0013", "LAT": "-16.209522", "LONG": "-49.589376", "EXT_M": null, "ORIGEM": "DMA", "TRANSPOSICAO": null }, "geometry": { "type": "Point", "coordinates": [ -49.589375582437476, -16.20952220135494 ] } },
{ "type": "Feature", "properties": { "Trecho": null, "SRE": null, "RODOVIA": null, "LINK": "DMA_DRE_0014\n", "LAT": "-16.206448", "LONG": "-49.595258", "EXT_M": null, "ORIGEM": "DMA", "TRANSPOSICAO": null }, "geometry": { "type": "Point", "coordinates": [ -49.595258021506112, -16.206448494454211 ] } },
{ "type": "Feature", "properties": { "Trecho": null, "SRE": null, "RODOVIA": null, "LINK": "DMA_DRE_0015\n", "LAT": "-16.198685", "LONG": "-49.604055", "EXT_M": null, "ORIGEM": "DMA", "TRANSPOSICAO": null }, "geometry": { "type": "Point", "coordinates": [ -49.604055182635776, -16.198684734782542 ] } },
{ "type": "Feature", "properties": { "Trecho": null, "SRE": null, "RODOVIA": null, "LINK": "DMA_DRE_0016\n", "LAT": "-16.196485", "LONG": "-49.605354", "EXT_M": null, "ORIGEM": "DMA", "TRANSPOSICAO": null }, "geometry": { "type": "Point", "coordinates": [ -49.605353558826593, -16.196485444500123 ] } },
{ "type": "Feature", "properties": { "Trecho": null, "SRE": null, "RODOVIA": null, "LINK": "DMA_DRE_0017", "LAT": "-16.185939", "LONG": "-49.611289", "EXT_M": null, "ORIGEM": "DMA", "TRANSPOSICAO": null }, "geometry": { "type": "Point", "coordinates": [ -49.611288992841793, -16.185939450133834 ] } },
{ "type": "Feature", "properties": { "Trecho": null, "SRE": null, "RODOVIA": null, "LINK": "DMA_DRE_0018", "LAT": "-16.128493", "LONG": "-49.649618", "EXT_M": null, "ORIGEM": "DMA", "TRANSPOSICAO": null }, "geometry": { "type": "Point", "coordinates": [ -49.649617587944398, -16.128492928058179 ] } },
{ "type": "Feature", "properties": { "Trecho": null, "SRE": null, "RODOVIA": null, "LINK": "DMA_DRE_0019", "LAT": "-16.123472", "LONG": "-49.653831", "EXT_M": null, "ORIGEM": "DMA", "TRANSPOSICAO": null }, "geometry": { "type": "Point", "coordinates": [ -49.653830686196258, -16.123471656871217 ] } },
{ "type": "Feature", "properties": { "Trecho": null, "SRE": null, "RODOVIA": null, "LINK": "DMA_DRE_0020", "LAT": "-16.066555", "LONG": "-49.775269", "EXT_M": null, "ORIGEM": "DMA", "TRANSPOSICAO": null }, "geometry": { "type": "Point", "coordinates": [ -49.775268606248268, -16.0665550842612 ] } },
{ "type": "Feature", "properties": { "Trecho": null, "SRE": null, "RODOVIA": null, "LINK": "DMA_DRE_0021", "LAT": "-16.050365", "LONG": "-49.787457", "EXT_M": null, "ORIGEM": "DMA", "TRANSPOSICAO": null }, "geometry": { "type": "Point", "coordinates": [ -49.787457443958054, -16.050365128085819 ] } },
{ "type": "Feature", "properties": { "Trecho": null, "SRE": null, "RODOVIA": null, "LINK": "DMA_DRE_0022", "LAT": "-16.047768", "LONG": "-49.788729", "EXT_M": null, "ORIGEM": "DMA", "TRANSPOSICAO": null }, "geometry": { "type": "Point", "coordinates": [ -49.7887293226756, -16.047768375704173 ] } },
{ "type": "Feature", "properties": { "Trecho": null, "SRE": null, "RODOVIA": null, "LINK": "DMA_DRE_0023", "LAT": "-16.039634", "LONG": "-49.792465", "EXT_M": null, "ORIGEM": "DMA", "TRANSPOSICAO": null }, "geometry": { "type": "Point", "coordinates": [ -49.792465466408387, -16.039633651406557 ] } },
{ "type": "Feature", "properties": { "Trecho": null, "SRE": null, "RODOVIA": null, "LINK": "DMA_DRE_0024", "LAT": "-16.022728", "LONG": "-49.816711", "EXT_M": null, "ORIGEM": "DMA", "TRANSPOSICAO": null }, "geometry": { "type": "Point", "coordinates": [ -49.816710654461538, -16.02272826345256 ] } },
{ "type": "Feature", "properties": { "Trecho": null, "SRE": null, "RODOVIA": null, "LINK": "DMA_DRE_0025", "LAT": "-16.021476", "LONG": "-49.832079", "EXT_M": null, "ORIGEM": "DMA", "TRANSPOSICAO": null }, "geometry": { "type": "Point", "coordinates": [ -49.832079188965174, -16.021476257839975 ] } },
{ "type": "Feature", "properties": { "Trecho": null, "SRE": null, "RODOVIA": null, "LINK": "DMA_DRE_0026", "LAT": "-16.021264", "LONG": "-49.841247", "EXT_M": null, "ORIGEM": "DMA", "TRANSPOSICAO": null }, "geometry": { "type": "Point", "coordinates": [ -49.841247314720789, -16.021264278053721 ] } },
{ "type": "Feature", "properties": { "Trecho": null, "SRE": null, "RODOVIA": null, "LINK": "DMA_DRE_0027", "LAT": "-16.002769", "LONG": "-50.053095", "EXT_M": null, "ORIGEM": "DMA", "TRANSPOSICAO": null }, "geometry": { "type": "Point", "coordinates": [ -50.053094613611421, -16.002769041702798 ] } },
{ "type": "Feature", "properties": { "Trecho": null, "SRE": null, "RODOVIA": null, "LINK": "DMA_DRE_0028", "LAT": "-15.965487", "LONG": "-50.123578", "EXT_M": null, "ORIGEM": "DMA", "TRANSPOSICAO": null }, "geometry": { "type": "Point", "coordinates": [ -50.12357789254186, -15.965487096794856 ] } },
{ "type": "Feature", "properties": { "Trecho": null, "SRE": null, "RODOVIA": null, "LINK": "DMA_DRE_0029", "LAT": "-15.957962", "LONG": "-50.139317", "EXT_M": null, "ORIGEM": "DMA", "TRANSPOSICAO": null }, "geometry": { "type": "Point", "coordinates": [ -50.139317391671447, -15.957961814382726 ] } },
{ "type": "Feature", "properties": { "Trecho": null, "SRE": null, "RODOVIA": null, "LINK": "DMA_DRE_0030", "LAT": "-15.950278", "LONG": "-50.148274", "EXT_M": null, "ORIGEM": "DMA", "TRANSPOSICAO": null }, "geometry": { "type": "Point", "coordinates": [ -50.148273537640804, -15.950277547130908 ] } },
{ "type": "Feature", "properties": { "Trecho": null, "SRE": null, "RODOVIA": null, "LINK": "DMA_DRE_0031", "LAT": "-15.942699", "LONG": "-50.156753", "EXT_M": null, "ORIGEM": "DMA", "TRANSPOSICAO": null }, "geometry": { "type": "Point", "coordinates": [ -50.156752729091089, -15.94269926977222 ] } },
{ "type": "Feature", "properties": { "Trecho": null, "SRE": null, "RODOVIA": null, "LINK": "DMA_DRE_0032", "LAT": "-15.92855", "LONG": "-50.172916", "EXT_M": null, "ORIGEM": "DMA", "TRANSPOSICAO": null }, "geometry": { "type": "Point", "coordinates": [ -50.172916187793199, -15.928549619039561 ] } },
{ "type": "Feature", "properties": { "Trecho": null, "SRE": null, "RODOVIA": null, "LINK": "DMA_DRE_0033", "LAT": "-15.906822", "LONG": "-50.236325", "EXT_M": null, "ORIGEM": "DMA", "TRANSPOSICAO": null }, "geometry": { "type": "Point", "coordinates": [ -50.236324641357314, -15.906821690948217 ] } },
{ "type": "Feature", "properties": { "Trecho": null, "SRE": null, "RODOVIA": null, "LINK": "DMA_DRE_0034", "LAT": "-15.886578", "LONG": "-50.473424", "EXT_M": null, "ORIGEM": "DMA", "TRANSPOSICAO": null }, "geometry": { "type": "Point", "coordinates": [ -50.473424032285813, -15.88657762136067 ] } },
{ "type": "Feature", "properties": { "Trecho": null, "SRE": null, "RODOVIA": null, "LINK": "DMA_DRE_0035", "LAT": "-15.817684", "LONG": "-50.604481", "EXT_M": null, "ORIGEM": "DMA", "TRANSPOSICAO": null }, "geometry": { "type": "Point", "coordinates": [ -50.604480535139217, -15.817684190827132 ] } },
{ "type": "Feature", "properties": { "Trecho": null, "SRE": null, "RODOVIA": null, "LINK": "DMA_DRE_0036", "LAT": "-15.816691", "LONG": "-50.611569", "EXT_M": null, "ORIGEM": "DMA", "TRANSPOSICAO": null }, "geometry": { "type": "Point", "coordinates": [ -50.611568609242191, -15.816690535579051 ] } },
{ "type": "Feature", "properties": { "Trecho": null, "SRE": null, "RODOVIA": null, "LINK": "DMA_DRE_0037", "LAT": "-15.814942", "LONG": "-50.61247", "EXT_M": null, "ORIGEM": "DMA", "TRANSPOSICAO": null }, "geometry": { "type": "Point", "coordinates": [ -50.612469523333779, -15.814941702342431 ] } },
{ "type": "Feature", "properties": { "Trecho": null, "SRE": null, "RODOVIA": null, "LINK": "DMA_DRE_0038", "LAT": "-15.809179", "LONG": "-50.609899", "EXT_M": null, "ORIGEM": "DMA", "TRANSPOSICAO": null }, "geometry": { "type": "Point", "coordinates": [ -50.609899268425409, -15.809178501903567 ] } },
{ "type": "Feature", "properties": { "Trecho": null, "SRE": null, "RODOVIA": null, "LINK": "DMA_DRE_0039", "LAT": "-15.646073", "LONG": "-50.583521", "EXT_M": null, "ORIGEM": "DMA", "TRANSPOSICAO": null }, "geometry": { "type": "Point", "coordinates": [ -50.583521033773053, -15.646073305115415 ] } },
{ "type": "Feature", "properties": { "Trecho": null, "SRE": null, "RODOVIA": null, "LINK": "DMA_DRE_0040", "LAT": "-15.644271", "LONG": "-50.58056", "EXT_M": null, "ORIGEM": "DMA", "TRANSPOSICAO": null }, "geometry": { "type": "Point", "coordinates": [ -50.580559941133785, -15.644271476932236 ] } },
{ "type": "Feature", "properties": { "Trecho": null, "SRE": null, "RODOVIA": null, "LINK": "DMA_DRE_0041", "LAT": "-15.636534", "LONG": "-50.57477", "EXT_M": null, "ORIGEM": "DMA", "TRANSPOSICAO": null }, "geometry": { "type": "Point", "coordinates": [ -50.574770243221636, -15.636534214733844 ] } },
{ "type": "Feature", "properties": { "Trecho": null, "SRE": null, "RODOVIA": null, "LINK": "DMA_DRE_0042", "LAT": "-15.573126", "LONG": "-50.627116", "EXT_M": null, "ORIGEM": "DMA", "TRANSPOSICAO": null }, "geometry": { "type": "Point", "coordinates": [ -50.627116001690524, -15.573125761169665 ] } },
{ "type": "Feature", "properties": { "Trecho": null, "SRE": null, "RODOVIA": null, "LINK": "DMA_DRE_0043", "LAT": "-15.444136", "LONG": "-50.745719", "EXT_M": null, "ORIGEM": "DMA", "TRANSPOSICAO": null }, "geometry": { "type": "Point", "coordinates": [ -50.745718692101427, -15.44413606123217 ] } },
{ "type": "Feature", "properties": { "Trecho": null, "SRE": null, "RODOVIA": null, "LINK": "DMA_DRE_0044", "LAT": "-15.434915", "LONG": "-50.744341", "EXT_M": null, "ORIGEM": "DMA", "TRANSPOSICAO": null }, "geometry": { "type": "Point", "coordinates": [ -50.744340823490752, -15.434914940529982 ] } },
{ "type": "Feature", "properties": { "Trecho": null, "SRE": null, "RODOVIA": null, "LINK": "DMA_DRE_0045", "LAT": "-15.431755", "LONG": "-50.744487", "EXT_M": null, "ORIGEM": "DMA", "TRANSPOSICAO": null }, "geometry": { "type": "Point", "coordinates": [ -50.744486559593803, -15.431755116841085 ] } },
{ "type": "Feature", "properties": { "Trecho": null, "SRE": null, "RODOVIA": null, "LINK": "DMA_DRE_0046", "LAT": "-15.415545", "LONG": "-50.747819", "EXT_M": null, "ORIGEM": "DMA", "TRANSPOSICAO": null }, "geometry": { "type": "Point", "coordinates": [ -50.747818616859014, -15.415545287560732 ] } },
{ "type": "Feature", "properties": { "Trecho": null, "SRE": null, "RODOVIA": null, "LINK": "DMA_DRE_0047", "LAT": "-14.948471", "LONG": "-47.43682", "EXT_M": null, "ORIGEM": "DMA", "TRANSPOSICAO": null }, "geometry": { "type": "Point", "coordinates": [ -47.436819626221968, -14.948471363828585 ] } },
{ "type": "Feature", "properties": { "Trecho": null, "SRE": null, "RODOVIA": null, "LINK": "DMA_DRE_0048", "LAT": "-14.535871", "LONG": "-49.962088", "EXT_M": null, "ORIGEM": "DMA", "TRANSPOSICAO": null }, "geometry": { "type": "Point", "coordinates": [ -49.962088216366112, -14.535870764941386 ] } },
{ "type": "Feature", "properties": { "Trecho": null, "SRE": null, "RODOVIA": null, "LINK": "DMA_DRE_0049", "LAT": "-16.534435", "LONG": "-50.398277", "EXT_M": null, "ORIGEM": "DMA", "TRANSPOSICAO": null }, "geometry": { "type": "Point", "coordinates": [ -50.398277278900814, -16.534435233577259 ] } },
{ "type": "Feature", "properties": { "Trecho": null, "SRE": null, "RODOVIA": null, "LINK": "DMA_DRE_0050", "LAT": "-16.665001", "LONG": "-50.449882", "EXT_M": null, "ORIGEM": "DMA", "TRANSPOSICAO": null }, "geometry": { "type": "Point", "coordinates": [ -50.449882469682265, -16.665001423225863 ] } },
{ "type": "Feature", "properties": { "Trecho": null, "SRE": null, "RODOVIA": null, "LINK": "DMA_INTER_ACES_0001", "LAT": "-15.446665", "LONG": "-50.744437", "EXT_M": null, "ORIGEM": "DMA", "TRANSPOSICAO": null }, "geometry": { "type": "Point", "coordinates": [ -50.744437469257662, -15.446665187981669 ] } },
{ "type": "Feature", "properties": { "Trecho": null, "SRE": null, "RODOVIA": null, "LINK": "DMA_INTER_ACES_0002", "LAT": "-15.436575", "LONG": "-50.744604", "EXT_M": null, "ORIGEM": "DMA", "TRANSPOSICAO": null }, "geometry": { "type": "Point", "coordinates": [ -50.744604257244326, -15.436574514788571 ] } },
{ "type": "Feature", "properties": { "Trecho": null, "SRE": null, "RODOVIA": null, "LINK": "DMA_INTER_ACES_0003", "LAT": "-14.95407", "LONG": "-49.545813", "EXT_M": null, "ORIGEM": "DMA", "TRANSPOSICAO": null }, "geometry": { "type": "Point", "coordinates": [ -49.545813252879221, -14.954069997057578 ] } },
{ "type": "Feature", "properties": { "Trecho": null, "SRE": null, "RODOVIA": null, "LINK": "DMA_INTER_ACES_0004", "LAT": "-18.963958", "LONG": "-51.92471", "EXT_M": null, "ORIGEM": "DMA", "TRANSPOSICAO": null }, "geometry": { "type": "Point", "coordinates": [ -51.924710114223465, -18.963957767533426 ] } },
{ "type": "Feature", "properties": { "Trecho": null, "SRE": null, "RODOVIA": null, "LINK": "DMA_INTER_ACES_0005", "LAT": "-16.831234", "LONG": "-49.53531", "EXT_M": null, "ORIGEM": "DMA", "TRANSPOSICAO": null }, "geometry": { "type": "Point", "coordinates": [ -49.535310372432839, -16.831234085255183 ] } },
{ "type": "Feature", "properties": { "Trecho": null, "SRE": null, "RODOVIA": null, "LINK": "DMA_INTER_ACES_0006", "LAT": "-16.402757", "LONG": "-49.222387", "EXT_M": null, "ORIGEM": "DMA", "TRANSPOSICAO": null }, "geometry": { "type": "Point", "coordinates": [ -49.22238723119095, -16.402756825969018 ] } },
{ "type": "Feature", "properties": { "Trecho": null, "SRE": null, "RODOVIA": null, "LINK": "DMA_INTER_ACES_0007", "LAT": "-16.460104", "LONG": "-49.95802", "EXT_M": null, "ORIGEM": "DMA", "TRANSPOSICAO": null }, "geometry": { "type": "Point", "coordinates": [ -49.958020172968979, -16.460103994399798 ] } },
{ "type": "Feature", "properties": { "Trecho": null, "SRE": null, "RODOVIA": null, "LINK": "DMA_INTER_ACES_0008", "LAT": "-17.200905", "LONG": "-48.706887", "EXT_M": null, "ORIGEM": "DMA", "TRANSPOSICAO": null }, "geometry": { "type": "Point", "coordinates": [ -48.70688736937408, -17.200904560902039 ] } },
{ "type": "Feature", "properties": { "Trecho": null, "SRE": null, "RODOVIA": null, "LINK": "DMA_INTER_ACES_0009", "LAT": "-16.763218", "LONG": "-49.693497", "EXT_M": null, "ORIGEM": "DMA", "TRANSPOSICAO": null }, "geometry": { "type": "Point", "coordinates": [ -49.693497330191768, -16.763218289174993 ] } },
{ "type": "Feature", "properties": { "Trecho": null, "SRE": null, "RODOVIA": null, "LINK": "DMA_INTER_ACES_0010", "LAT": "-16.336084", "LONG": "-48.944463", "EXT_M": null, "ORIGEM": "DMA", "TRANSPOSICAO": null }, "geometry": { "type": "Point", "coordinates": [ -48.944463340483289, -16.336083942515103 ] } },
{ "type": "Feature", "properties": { "Trecho": null, "SRE": null, "RODOVIA": null, "LINK": "DMA_INTER_ACES_0011", "LAT": "-16.504893", "LONG": "-49.018091", "EXT_M": null, "ORIGEM": "DMA", "TRANSPOSICAO": null }, "geometry": { "type": "Point", "coordinates": [ -49.018091109162512, -16.504893276325362 ] } },
{ "type": "Feature", "properties": { "Trecho": null, "SRE": null, "RODOVIA": null, "LINK": "DMA_INTER_ACES_0012", "LAT": "-16.292838", "LONG": "-49.093122", "EXT_M": null, "ORIGEM": "DMA", "TRANSPOSICAO": null }, "geometry": { "type": "Point", "coordinates": [ -49.093122002297427, -16.292838082590528 ] } },
{ "type": "Feature", "properties": { "Trecho": null, "SRE": null, "RODOVIA": null, "LINK": "DMA_INTER_ACES_0013", "LAT": "-16.317497", "LONG": "-50.902435", "EXT_M": null, "ORIGEM": "DMA", "TRANSPOSICAO": null }, "geometry": { "type": "Point", "coordinates": [ -50.902434552902633, -16.317496992818484 ] } },
{ "type": "Feature", "properties": { "Trecho": null, "SRE": null, "RODOVIA": null, "LINK": "DMA_OAE_0001", "LAT": "-14.721942", "LONG": "-49.747239", "EXT_M": null, "ORIGEM": "DMA", "TRANSPOSICAO": null }, "geometry": { "type": "Point", "coordinates": [ -49.747239110608419, -14.721942442035884 ] } },
{ "type": "Feature", "properties": { "Trecho": null, "SRE": null, "RODOVIA": null, "LINK": "DMA_OAE_0002", "LAT": "-16.721637", "LONG": "-52.316601", "EXT_M": null, "ORIGEM": "DMA", "TRANSPOSICAO": null }, "geometry": { "type": "Point", "coordinates": [ -52.316600536656722, -16.721636632518571 ] } },
{ "type": "Feature", "properties": { "Trecho": null, "SRE": null, "RODOVIA": null, "LINK": "DMA_OAE_0003", "LAT": "-16.727969", "LONG": "-52.317222", "EXT_M": null, "ORIGEM": "DMA", "TRANSPOSICAO": null }, "geometry": { "type": "Point", "coordinates": [ -52.317221934249197, -16.727968969889858 ] } },
{ "type": "Feature", "properties": { "Trecho": null, "SRE": null, "RODOVIA": null, "LINK": "DMA_OAE_0004", "LAT": "-16.816681", "LONG": "-52.336426", "EXT_M": null, "ORIGEM": "DMA", "TRANSPOSICAO": null }, "geometry": { "type": "Point", "coordinates": [ -52.336426078894, -16.816680873811674 ] } },
{ "type": "Feature", "properties": { "Trecho": "Entr. GO-050(A) / 070 (Entr. Av. Castelo Branco) (Goiânia) - Início trecho urbano (Trindade)", "SRE": "060EGO0010", "RODOVIA": "GO-060", "LINK": "DPJ_OAE_0001", "LAT": "-16.656472", "LONG": "-49.381187", "EXT_M": null, "ORIGEM": "DPJ", "TRANSPOSICAO": null }, "geometry": { "type": "Point", "coordinates": [ -49.381186872135686, -16.656472336989399 ] } },
{ "type": "Feature", "properties": { "Trecho": "Fim pavimentação/Fim trecho urbano (Nova Roma) - Início trecho urbano (Canabrava)", "SRE": "112EGO0060", "RODOVIA": "GO-112", "LINK": "DPJ_OAE_0002", "LAT": "-13.736831", "LONG": "-46.87822", "EXT_M": null, "ORIGEM": "DPJ", "TRANSPOSICAO": null }, "geometry": { "type": "Point", "coordinates": [ -46.878220367548757, -13.736830796719699 ] } },
{ "type": "Feature", "properties": { "Trecho": "Início trecho urbano (Canabrava) - Fim trecho urbano (Canabrava)", "SRE": "112EGO0061", "RODOVIA": "GO-112", "LINK": "DPJ_OAE_0003", "LAT": "-13.70843", "LONG": "-46.859418", "EXT_M": null, "ORIGEM": "DPJ", "TRANSPOSICAO": null }, "geometry": { "type": "Point", "coordinates": [ -46.859418061136601, -13.70843024813356 ] } },
{ "type": "Feature", "properties": { "Trecho": "Fim trecho urbano (Canabrava) - Rio Paraná", "SRE": "112EGO0062", "RODOVIA": "GO-112", "LINK": "DPJ_OAE_0004", "LAT": "-13.603895", "LONG": "-46.864961", "EXT_M": null, "ORIGEM": "DPJ", "TRANSPOSICAO": null }, "geometry": { "type": "Point", "coordinates": [ -46.864960603502119, -13.603895243210781 ] } },
{ "type": "Feature", "properties": { "Trecho": "Fim trecho urbano (São Luiz dos Montes Belos)\n-Entr. GO-324", "SRE": "164EGO0440", "RODOVIA": "GO-164", "LINK": "DPJ_OAE_0005", "LAT": "-16.450221", "LONG": "-50.386442", "EXT_M": null, "ORIGEM": "DPJ", "TRANSPOSICAO": null }, "geometry": { "type": "Point", "coordinates": [ -50.386442107190319, -16.450221330676282 ] } },
{ "type": "Feature", "properties": { "Trecho": "Entr. GO-302 - Entr. GO-406", "SRE": "174EGO0030", "RODOVIA": "GO-174", "LINK": "DPJ_OAE_0006", "LAT": "-19.105813", "LONG": "-51.123456", "EXT_M": null, "ORIGEM": "DPJ", "TRANSPOSICAO": null }, "geometry": { "type": "Point", "coordinates": [ -51.123455821797918, -19.105813125508988 ] } },
{ "type": "Feature", "properties": { "Trecho": "Fim Obra de Duplicação - Entr. GO-210", "SRE": "174EGO0180", "RODOVIA": "GO-174", "LINK": "DPJ_OAE_0007", "LAT": "-17.730882", "LONG": "-50.974213", "EXT_M": null, "ORIGEM": "DPJ", "TRANSPOSICAO": null }, "geometry": { "type": "Point", "coordinates": [ -50.974213253960343, -17.730881753922496 ] } },
{ "type": "Feature", "properties": { "Trecho": "Entr. GO-210 - Início trecho urbano (Montividiu)", "SRE": "174EGO0195", "RODOVIA": "GO-174", "LINK": "DPJ_OAE_0008", "LAT": "-17.67611", "LONG": "-51.039841", "EXT_M": null, "ORIGEM": "DPJ", "TRANSPOSICAO": null }, "geometry": { "type": "Point", "coordinates": [ -51.039841427869753, -17.67610963994559 ] } },
{ "type": "Feature", "properties": { "Trecho": "Entr. GO-210 - Início trecho urbano (Montividiu)", "SRE": "174EGO0195", "RODOVIA": "GO-174", "LINK": "DPJ_OAE_0009", "LAT": "-17.624346", "LONG": "-51.061645", "EXT_M": null, "ORIGEM": "DPJ", "TRANSPOSICAO": null }, "geometry": { "type": "Point", "coordinates": [ -51.061645086184583, -17.624345863093478 ] } },
{ "type": "Feature", "properties": { "Trecho": "Entr. GO-210 - Início trecho urbano (Montividiu)", "SRE": "174EGO0195", "RODOVIA": "GO-174", "LINK": "DPJ_OAE_0010", "LAT": "-17.582603", "LONG": "-51.089869", "EXT_M": null, "ORIGEM": "DPJ", "TRANSPOSICAO": null }, "geometry": { "type": "Point", "coordinates": [ -51.089869234311799, -17.582602926670091 ] } },
{ "type": "Feature", "properties": { "Trecho": "Entr. GO-210 - Início trecho urbano (Montividiu)", "SRE": "174EGO0195", "RODOVIA": "GO-174", "LINK": "DPJ_OAE_0011", "LAT": "-17.525068", "LONG": "-51.113841", "EXT_M": null, "ORIGEM": "DPJ", "TRANSPOSICAO": null }, "geometry": { "type": "Point", "coordinates": [ -51.113841341483898, -17.525068215689014 ] } },
{ "type": "Feature", "properties": { "Trecho": "Entr. GO-210 - Início trecho urbano (Montividiu)", "SRE": "174EGO0195", "RODOVIA": "GO-174", "LINK": "DPJ_OAE_0012", "LAT": "-17.483736", "LONG": "-51.139628", "EXT_M": null, "ORIGEM": "DPJ", "TRANSPOSICAO": null }, "geometry": { "type": "Point", "coordinates": [ -51.139628445399737, -17.483735843391727 ] } },
{ "type": "Feature", "properties": { "Trecho": "Início trecho urbano (Montividiu) - Entr. GO-050(A)/220 (Montividiu)", "SRE": "174EGO0210", "RODOVIA": "GO-174", "LINK": "DPJ_OAE_0013", "LAT": "-17.440938", "LONG": "-51.172967", "EXT_M": null, "ORIGEM": "DPJ", "TRANSPOSICAO": null }, "geometry": { "type": "Point", "coordinates": [ -51.172966738174097, -17.440937855700319 ] } },
{ "type": "Feature", "properties": { "Trecho": "Balsa Ada - Rio Caiapó / Fim trecho urbano (Campos Verdes) - BR-070(A) (Ponte Alta)", "SRE": "188EGO0072", "RODOVIA": "GO-188", "LINK": "DPJ_OAE_0014", "LAT": "-16.084447", "LONG": "-51.741515", "EXT_M": null, "ORIGEM": "DPJ", "TRANSPOSICAO": null }, "geometry": { "type": "Point", "coordinates": [ -51.741514927306511, -16.084446838783769 ] } },
{ "type": "Feature", "properties": { "Trecho": "Entr. GO-457 - Entr. BR-050(A) (Campo Alegre de Goiás)", "SRE": "213EGO0020", "RODOVIA": "GO-213", "LINK": "DPJ_OAE_0015", "LAT": "-17.50031", "LONG": "-47.616801", "EXT_M": null, "ORIGEM": "DPJ", "TRANSPOSICAO": null }, "geometry": { "type": "Point", "coordinates": [ -47.616801317974087, -17.500309896539264 ] } },
{ "type": "Feature", "properties": { "Trecho": "Fim trecho urbano (Adelândia) - Início trecho urbano (Silvolândia)", "SRE": "222EGO0250", "RODOVIA": "GO-222", "LINK": "DPJ_OAE_0016", "LAT": "-16.412251", "LONG": "-50.224915", "EXT_M": null, "ORIGEM": "DPJ", "TRANSPOSICAO": null }, "geometry": { "type": "Point", "coordinates": [ -50.224915464788573, -16.412251479111571 ] } },
{ "type": "Feature", "properties": { "Trecho": "Entr. BR-010/GO-118(B) Fim duplicação (Teresina de Goiás) - Fim trecho urbano (Teresina de Goiás)", "SRE": "241EGO0045", "RODOVIA": "GO-241", "LINK": "DPJ_OAE_0017", "LAT": "-13.78257", "LONG": "-47.27781", "EXT_M": null, "ORIGEM": "DPJ", "TRANSPOSICAO": null }, "geometry": { "type": "Point", "coordinates": [ -47.277810021755407, -13.782570215144686 ] } },
{ "type": "Feature", "properties": { "Trecho": "Fim trecho urbano (Teresina de Goiás) - Início trecho urbano (Cavalcante)", "SRE": "241EGO0050", "RODOVIA": "GO-241", "LINK": "DPJ_OAE_0018", "LAT": "-13.778742", "LONG": "-47.422365", "EXT_M": null, "ORIGEM": "DPJ", "TRANSPOSICAO": null }, "geometry": { "type": "Point", "coordinates": [ -47.422365376161409, -13.778741895289311 ] } },
{ "type": "Feature", "properties": { "Trecho": "Início trecho urbano (Cavalcante) - Fim trecho urbano (Cavalcante)", "SRE": "241EGO0060", "RODOVIA": "GO-241", "LINK": "DPJ_OAE_0019", "LAT": "-13.796832", "LONG": "-47.454081", "EXT_M": null, "ORIGEM": "DPJ", "TRANSPOSICAO": null }, "geometry": { "type": "Point", "coordinates": [ -47.454081340502249, -13.796832386628656 ] } },
{ "type": "Feature", "properties": { "Trecho": "Div. GO/MG - Início trecho urbano (Três Ranchos)", "SRE": "330EGO0010", "RODOVIA": "GO-330", "LINK": "DPJ_OAE_0020", "LAT": "-18.351404", "LONG": "-47.780342", "EXT_M": null, "ORIGEM": "DPJ", "TRANSPOSICAO": null }, "geometry": { "type": "Point", "coordinates": [ -47.78034182461839, -18.351404283072672 ] } },
{ "type": "Feature", "properties": { "Trecho": "Fim trecho urbano (Doverlândia) - Entr. GO-541", "SRE": "465EGO0030", "RODOVIA": "GO-465", "LINK": "DPJ_OAE_0021", "LAT": "-17.042876", "LONG": "-52.350081", "EXT_M": null, "ORIGEM": "DPJ", "TRANSPOSICAO": null }, "geometry": { "type": "Point", "coordinates": [ -52.350081460535463, -17.042876427253685 ] } },
{ "type": "Feature", "properties": { "Trecho": "Fim pavimentação/Fim trecho urbano (Arenópolis) - Entr. GO-221", "SRE": "471EGO0020", "RODOVIA": "GO-471", "LINK": "DPJ_OAE_0022", "LAT": "-16.538143", "LONG": "-51.479769", "EXT_M": null, "ORIGEM": "DPJ", "TRANSPOSICAO": null }, "geometry": { "type": "Point", "coordinates": [ -51.479769258994693, -16.538142839014412 ] } },
{ "type": "Feature", "properties": { "Trecho": "Início Lago das Brisas (A) (Represa Paranaíba)- Fim Lago das Brisas (B) (Represa Paranaíba)", "SRE": "505EGO0025", "RODOVIA": "GO-505", "LINK": "DPJ_OAE_0023", "LAT": "-18.266923", "LONG": "-48.830456", "EXT_M": null, "ORIGEM": "DPJ", "TRANSPOSICAO": null }, "geometry": { "type": "Point", "coordinates": [ -48.83045572939502, -18.266922599472803 ] } },
{ "type": "Feature", "properties": { "Trecho": "Entr. GO-194 (B) - Entr. GO-461", "SRE": "542EGO0020", "RODOVIA": "GO-542", "LINK": "DPJ_OAE_0024", "LAT": "-16.77376", "LONG": "-52.833223", "EXT_M": null, "ORIGEM": "DPJ", "TRANSPOSICAO": null }, "geometry": { "type": "Point", "coordinates": [ -52.833222506198766, -16.773760377686369 ] } },
{ "type": "Feature", "properties": { "Trecho": "Balsa Cachoeira Dourada", "SRE": null, "RODOVIA": "federal", "LINK": "DPJ_OAE_0025", "LAT": "-18.49181", "LONG": "-49.517093", "EXT_M": null, "ORIGEM": "DPJ", "TRANSPOSICAO": null }, "geometry": { "type": "Point", "coordinates": [ -49.517093270008729, -18.491810140790189 ] } },
{ "type": "Feature", "properties": { "Trecho": "Divisa Diorama - Divisa Montes Claros\n", "SRE": null, "RODOVIA": "Vicinal", "LINK": "DPJ_OAE_0026", "LAT": "-16.18623", "LONG": "-51.296923", "EXT_M": null, "ORIGEM": "DPJ", "TRANSPOSICAO": null }, "geometry": { "type": "Point", "coordinates": [ -51.296922571977959, -16.186229820754388 ] } },
{ "type": "Feature", "properties": { "Trecho": "Santa Teresa de Goiás", "SRE": null, "RODOVIA": "Vicinal", "LINK": "DPJ_OAE_0027", "LAT": "-13.714802", "LONG": "-49.01748", "EXT_M": null, "ORIGEM": "DPJ", "TRANSPOSICAO": null }, "geometry": { "type": "Point", "coordinates": [ -49.017479734378227, -13.714802072199376 ] } },
{ "type": "Feature", "properties": { "Trecho": "Pirenópolis", "SRE": null, "RODOVIA": "Vicinal", "LINK": "DPJ_OAE_0028", "LAT": "-15.858488", "LONG": "-48.962173", "EXT_M": null, "ORIGEM": "DPJ", "TRANSPOSICAO": null }, "geometry": { "type": "Point", "coordinates": [ -48.962172913898385, -15.858487779033529 ] } },
{ "type": "Feature", "properties": { "Trecho": "Anhanguera", "SRE": null, "RODOVIA": "Vicinal", "LINK": "DPJ_OAE_0029", "LAT": "-18.336733", "LONG": "-48.219358", "EXT_M": null, "ORIGEM": "DPJ", "TRANSPOSICAO": null }, "geometry": { "type": "Point", "coordinates": [ -48.219357586994164, -18.336732842372349 ] } },
{ "type": "Feature", "properties": { "Trecho": "Distrito Agroindustrial de Senador Canedo\n", "SRE": null, "RODOVIA": "Vicinal", "LINK": "DPJ_OAE_0030", "LAT": "-16.720876", "LONG": "-49.132654", "EXT_M": null, "ORIGEM": "DPJ", "TRANSPOSICAO": null }, "geometry": { "type": "Point", "coordinates": [ -49.132654446486995, -16.720876194510016 ] } },
{ "type": "Feature", "properties": { "Trecho": "Entr. BR-070(B)/GO-070(B) (Itaberaí) - Início duplicação (Itaberaí)", "SRE": "156EGO0230", "RODOVIA": "GO-156", "LINK": "DPJ_AMP_0001", "LAT": "-16.021321", "LONG": "-49.806639", "EXT_M": null, "ORIGEM": "DPJ", "TRANSPOSICAO": null }, "geometry": { "type": "Point", "coordinates": [ -49.806639348626291, -16.021320778571784 ] } },
{ "type": "Feature", "properties": { "Trecho": "Anápolis", "SRE": "PRAD", "RODOVIA": null, "LINK": "DPJ_TERR_0001", "LAT": "-16.373478", "LONG": "-48.932762", "EXT_M": null, "ORIGEM": "DPJ", "TRANSPOSICAO": null }, "geometry": { "type": "Point", "coordinates": [ -48.932762100757316, -16.373477609130877 ] } },
{ "type": "Feature", "properties": { "Trecho": "Contorno de Anápolis", "SRE": null, "RODOVIA": null, "LINK": "DPJ_AMP_0003", "LAT": "-16.395871", "LONG": "-48.962172", "EXT_M": null, "ORIGEM": "DPJ", "TRANSPOSICAO": null }, "geometry": { "type": "Point", "coordinates": [ -48.96217189811572, -16.395870814769456 ] } },
{ "type": "Feature", "properties": { "Trecho": "Contorno de Parúna", "SRE": null, "RODOVIA": null, "LINK": "DPJ_AMP_0003", "LAT": "-16.941767", "LONG": "-50.470269", "EXT_M": null, "ORIGEM": "DPJ", "TRANSPOSICAO": null }, "geometry": { "type": "Point", "coordinates": [ -50.470269305513284, -16.941766956116382 ] } },
{ "type": "Feature", "properties": { "Trecho": "Contorno de Iatberaí", "SRE": null, "RODOVIA": null, "LINK": "DPJ_AMP_0002", "LAT": "-16.058815", "LONG": "-49.781424", "EXT_M": null, "ORIGEM": "DPJ", "TRANSPOSICAO": null }, "geometry": { "type": "Point", "coordinates": [ -49.781424032317418, -16.058814679786604 ] } },
{ "type": "Feature", "properties": { "Trecho": "Fim trecho urbano (Oriente) - Início trecho urbano (Itapaci)", "SRE": "336EGO0020", "RODOVIA": "GO-336", "LINK": "DPL_INTER_ACES_0001", "LAT": "-15.034298", "LONG": "-49.515964", "EXT_M": "11345", "ORIGEM": "DPL", "TRANSPOSICAO": null }, "geometry": { "type": "Point", "coordinates": [ -49.515964055963202, -15.034297970900875 ] } },
{ "type": "Feature", "properties": { "Trecho": "Início trecho urbano (Itapaci) - Entr. GO-154(A) / Início duplicação (Itapaci)", "SRE": "336EGO0025\n", "RODOVIA": "GO-336", "LINK": "DPL_INTER_ACES_0002\n", "LAT": "-14.970156", "LONG": "-49.545308", "EXT_M": "1026", "ORIGEM": "DPL", "TRANSPOSICAO": null }, "geometry": { "type": "Point", "coordinates": [ -49.545308258502139, -14.970156218448505 ] } },
{ "type": "Feature", "properties": { "Trecho": "Entr. GO-222(B) (Araçu) - Início trecho urbano (Ordália)", "SRE": "154EGO0070", "RODOVIA": "GO-154", "LINK": "DPL_DRE_0001", "LAT": "-16.265745", "LONG": "-49.734387", "EXT_M": null, "ORIGEM": "DPL", "TRANSPOSICAO": null }, "geometry": { "type": "Point", "coordinates": [ -49.734387422233887, -16.265744770285337 ] } },
{ "type": "Feature", "properties": { "Trecho": "Início trecho urbano (Ordália) - Início pavimentação (Ordália)", "SRE": "154EGO0075", "RODOVIA": "GO-154", "LINK": "DPL_DRE_0002", "LAT": "-16.213332", "LONG": "-49.739564", "EXT_M": null, "ORIGEM": "DPL", "TRANSPOSICAO": null }, "geometry": { "type": "Point", "coordinates": [ -49.739564122538788, -16.213332174126727 ] } },
{ "type": "Feature", "properties": { "Trecho": "Entr. GO-050(A)/220 (Montividiu)\n - Entr. GO-050(B)\n", "SRE": "174EGO0230\n", "RODOVIA": "GO-174", "LINK": "DPL_OAE_0001\n", "LAT": "-17.359038", "LONG": "-51.181713", "EXT_M": null, "ORIGEM": "DPL", "TRANSPOSICAO": null }, "geometry": { "type": "Point", "coordinates": [ -51.181712960620978, -17.359038394979777 ] } },
{ "type": "Feature", "properties": { "Trecho": "Entr. BR-158(B)\n - Entr. GO-475\n", "SRE": "188EGO0050\n", "RODOVIA": "GO-188\n", "LINK": "DPL_OAE_0002\n", "LAT": "-16.316669", "LONG": "-51.739589", "EXT_M": null, "ORIGEM": "DPL", "TRANSPOSICAO": null }, "geometry": { "type": "Point", "coordinates": [ -51.739588837791494, -16.316669037059171 ] } },
{ "type": "Feature", "properties": { "Trecho": "Entr. GO-154\n - Entr. BR-080\n", "SRE": "239EGO0130", "RODOVIA": "GO-239\n", "LINK": "DPL_OAE_0003\n", "LAT": "-13.847779", "LONG": "-49.780856", "EXT_M": null, "ORIGEM": "DPL", "TRANSPOSICAO": null }, "geometry": { "type": "Point", "coordinates": [ -49.780855860142239, -13.847778716900068 ] } },
{ "type": "Feature", "properties": { "Trecho": "Entr. BR-080\n- Balsa - Rio Crixás Açu\n", "SRE": "239EGO0135\n", "RODOVIA": "GO-239\n", "LINK": "DPL_OAE_0004\n", "LAT": "-13.89942", "LONG": "-49.952802", "EXT_M": null, "ORIGEM": "DPL", "TRANSPOSICAO": null }, "geometry": { "type": "Point", "coordinates": [ -49.952801964447993, -13.899419772766635 ] } },
{ "type": "Feature", "properties": { "Trecho": "Início trecho urbano (Guarinos)\n - Fim trecho urbano (Guarinos)\n", "SRE": "439EGO0015\n", "RODOVIA": "GO-439\n", "LINK": "DPL_OAE_0005", "LAT": "-14.731425", "LONG": "-49.705447", "EXT_M": "40", "ORIGEM": "DPL", "TRANSPOSICAO": null }, "geometry": { "type": "Point", "coordinates": [ -49.705447466557267, -14.731425422487652 ] } },
{ "type": "Feature", "properties": { "Trecho": "Fim trecho urbano (Lagolândia)\n - Entr. GO-473\n", "SRE": "479EGO0030\n", "RODOVIA": "GO-479\n", "LINK": "DPL_OAE_0006\n", "LAT": "-15.600525", "LONG": "-49.024086", "EXT_M": null, "ORIGEM": "DPL", "TRANSPOSICAO": null }, "geometry": { "type": "Point", "coordinates": [ -49.024085917412343, -15.600525201112733 ] } },
{ "type": "Feature", "properties": { "Trecho": null, "SRE": "Vicinal", "RODOVIA": null, "LINK": "DPL_OAE_0007\n", "LAT": "-17.921356", "LONG": "-48.811481", "EXT_M": "14", "ORIGEM": "DPL", "TRANSPOSICAO": null }, "geometry": { "type": "Point", "coordinates": [ -48.8114814756687, -17.921355786496953 ] } },
{ "type": "Feature", "properties": { "Trecho": "Entr. Bairro Parque Veiga Jardim - Aparecida de Goiânia / Entr. Bairro Colina de Homero", "SRE": "Vicinal", "RODOVIA": null, "LINK": "DPL_OAE_0008\n", "LAT": "-16.796945", "LONG": "-49.287827", "EXT_M": "24", "ORIGEM": "DPL", "TRANSPOSICAO": null }, "geometry": { "type": "Point", "coordinates": [ -49.287827020051758, -16.796945302557319 ] } },
{ "type": "Feature", "properties": { "Trecho": "Hidrolândia", "SRE": "Vicinal", "RODOVIA": null, "LINK": "DPL_OAE_0009\n", "LAT": "-17.057274", "LONG": "-49.35023", "EXT_M": null, "ORIGEM": "DPL", "TRANSPOSICAO": null }, "geometry": { "type": "Point", "coordinates": [ -49.350230106624252, -17.057273564968174 ] } }
]
}
